[{
	"LIFE_EXPECTANCY": 32,
	"WELLBEING": 128,
	"HOUSING_AFFORDABILITY": 327,
	"ENVIRONMENT": 82,
	"CULTURE": 34,
	"over_all_rank": 8,
	"SAFETY": 82,
	"INCOME": 7,
	"EDUCATION": 55,
	"place_name": "Wycombe"
},
{
	"LIFE_EXPECTANCY": 103,
	"WELLBEING": 375,
	"HOUSING_AFFORDABILITY": 358,
	"ENVIRONMENT": 157,
	"CULTURE": 186,
	"over_all_rank": 306,
	"SAFETY": 318,
	"INCOME": 60,
	"EDUCATION": 4,
	"place_name": "Cambridge"
},
{
	"LIFE_EXPECTANCY": 338,
	"WELLBEING": 283,
	"HOUSING_AFFORDABILITY": 1,
	"ENVIRONMENT": 75,
	"CULTURE": 287,
	"over_all_rank": 164,
	"SAFETY": 61,
	"INCOME": 33,
	"EDUCATION": 302,
	"place_name": "Copeland"
},
{
	"LIFE_EXPECTANCY": 229,
	"WELLBEING": 231,
	"HOUSING_AFFORDABILITY": 84,
	"ENVIRONMENT": 70,
	"CULTURE": 287,
	"over_all_rank": 149,
	"SAFETY": 140,
	"INCOME": 227,
	"EDUCATION": 303,
	"place_name": "Carlisle"
},
{
	"LIFE_EXPECTANCY": 12,
	"WELLBEING": 235,
	"HOUSING_AFFORDABILITY": 367,
	"ENVIRONMENT": 175,
	"CULTURE": 34,
	"over_all_rank": 135,
	"SAFETY": 212,
	"INCOME": 11,
	"EDUCATION": 48,
	"place_name": "South Bucks"
},
{
	"LIFE_EXPECTANCY": 6,
	"WELLBEING": 33,
	"HOUSING_AFFORDABILITY": 362,
	"ENVIRONMENT": 100,
	"CULTURE": 34,
	"over_all_rank": 84,
	"SAFETY": 13,
	"INCOME": 296,
	"EDUCATION": 22,
	"place_name": "Chiltern"
},
{
	"LIFE_EXPECTANCY": 50,
	"WELLBEING": 46,
	"HOUSING_AFFORDABILITY": 185,
	"ENVIRONMENT": 29,
	"CULTURE": 287,
	"over_all_rank": 12,
	"SAFETY": 11,
	"INCOME": 266,
	"EDUCATION": 126,
	"place_name": "South Lakeland"
},
{
	"LIFE_EXPECTANCY": 247,
	"WELLBEING": 348,
	"HOUSING_AFFORDABILITY": 115,
	"ENVIRONMENT": 349,
	"CULTURE": 186,
	"over_all_rank": 364,
	"SAFETY": 148,
	"INCOME": 361,
	"EDUCATION": 372,
	"place_name": "Fenland"
},
{
	"LIFE_EXPECTANCY": 50,
	"WELLBEING": 245,
	"HOUSING_AFFORDABILITY": 197,
	"ENVIRONMENT": 156,
	"CULTURE": 186,
	"over_all_rank": 34,
	"SAFETY": 66,
	"INCOME": 45,
	"EDUCATION": 211,
	"place_name": "Huntingdonshire"
},
{
	"LIFE_EXPECTANCY": 40,
	"WELLBEING": 147,
	"HOUSING_AFFORDABILITY": 264,
	"ENVIRONMENT": 247,
	"CULTURE": 186,
	"over_all_rank": 61,
	"SAFETY": 7,
	"INCOME": 157,
	"EDUCATION": 208,
	"place_name": "East Cambridgeshire"
},
{
	"LIFE_EXPECTANCY": 220,
	"WELLBEING": 26,
	"HOUSING_AFFORDABILITY": 46,
	"ENVIRONMENT": 306,
	"CULTURE": 327,
	"over_all_rank": 261,
	"SAFETY": 77,
	"INCOME": 369,
	"EDUCATION": 270,
	"place_name": "Erewash"
},
{
	"LIFE_EXPECTANCY": 22,
	"WELLBEING": 15,
	"HOUSING_AFFORDABILITY": 200,
	"ENVIRONMENT": 49,
	"CULTURE": 287,
	"over_all_rank": 136,
	"SAFETY": 81,
	"INCOME": 340,
	"EDUCATION": 310,
	"place_name": "Eden"
},
{
	"LIFE_EXPECTANCY": 276,
	"WELLBEING": 63,
	"HOUSING_AFFORDABILITY": 32,
	"ENVIRONMENT": 112,
	"CULTURE": 287,
	"over_all_rank": 179,
	"SAFETY": 91,
	"INCOME": 370,
	"EDUCATION": 110,
	"place_name": "Allerdale"
},
{
	"LIFE_EXPECTANCY": 343,
	"WELLBEING": 229,
	"HOUSING_AFFORDABILITY": 9,
	"ENVIRONMENT": 234,
	"CULTURE": 287,
	"over_all_rank": 327,
	"SAFETY": 240,
	"INCOME": 305,
	"EDUCATION": 366,
	"place_name": "Barrow-in-Furness"
},
{
	"LIFE_EXPECTANCY": 17,
	"WELLBEING": 114,
	"HOUSING_AFFORDABILITY": 281,
	"ENVIRONMENT": 190,
	"CULTURE": 186,
	"over_all_rank": 23,
	"SAFETY": 21,
	"INCOME": 189,
	"EDUCATION": 37,
	"place_name": "South Cambridgeshire"
},
{
	"LIFE_EXPECTANCY": 195,
	"WELLBEING": 45,
	"HOUSING_AFFORDABILITY": 151,
	"ENVIRONMENT": 218,
	"CULTURE": 327,
	"over_all_rank": 95,
	"SAFETY": 36,
	"INCOME": 289,
	"EDUCATION": 120,
	"place_name": "High Peak"
},
{
	"LIFE_EXPECTANCY": 237,
	"WELLBEING": 259,
	"HOUSING_AFFORDABILITY": 100,
	"ENVIRONMENT": 314,
	"CULTURE": 327,
	"over_all_rank": 161,
	"SAFETY": 20,
	"INCOME": 131,
	"EDUCATION": 177,
	"place_name": "South Derbyshire"
},
{
	"LIFE_EXPECTANCY": 114,
	"WELLBEING": 64,
	"HOUSING_AFFORDABILITY": 284,
	"ENVIRONMENT": 128,
	"CULTURE": 34,
	"over_all_rank": 152,
	"SAFETY": 71,
	"INCOME": 368,
	"EDUCATION": 81,
	"place_name": "Aylesbury Vale"
},
{
	"LIFE_EXPECTANCY": 195,
	"WELLBEING": 279,
	"HOUSING_AFFORDABILITY": 109,
	"ENVIRONMENT": 246,
	"CULTURE": 327,
	"over_all_rank": 210,
	"SAFETY": 3,
	"INCOME": 311,
	"EDUCATION": 234,
	"place_name": "North East Derbyshire"
},
{
	"LIFE_EXPECTANCY": 247,
	"WELLBEING": 3,
	"HOUSING_AFFORDABILITY": 75,
	"ENVIRONMENT": 312,
	"CULTURE": 327,
	"over_all_rank": 124,
	"SAFETY": 44,
	"INCOME": 222,
	"EDUCATION": 182,
	"place_name": "Amber Valley"
},
{
	"LIFE_EXPECTANCY": 333,
	"WELLBEING": 323,
	"HOUSING_AFFORDABILITY": 31,
	"ENVIRONMENT": 293,
	"CULTURE": 327,
	"over_all_rank": 319,
	"SAFETY": 38,
	"INCOME": 150,
	"EDUCATION": 365,
	"place_name": "Bolsover"
},
{
	"LIFE_EXPECTANCY": 93,
	"WELLBEING": 17,
	"HOUSING_AFFORDABILITY": 190,
	"ENVIRONMENT": 142,
	"CULTURE": 327,
	"over_all_rank": 47,
	"SAFETY": 8,
	"INCOME": 254,
	"EDUCATION": 187,
	"place_name": "Derbyshire Dales"
},
{
	"LIFE_EXPECTANCY": 293,
	"WELLBEING": 62,
	"HOUSING_AFFORDABILITY": 46,
	"ENVIRONMENT": 296,
	"CULTURE": 327,
	"over_all_rank": 176,
	"SAFETY": 104,
	"INCOME": 212,
	"EDUCATION": 252,
	"place_name": "Chesterfield"
},
{
	"LIFE_EXPECTANCY": 172,
	"WELLBEING": 21,
	"HOUSING_AFFORDABILITY": 293,
	"ENVIRONMENT": 63,
	"CULTURE": 249,
	"over_all_rank": 100,
	"SAFETY": 158,
	"INCOME": 186,
	"EDUCATION": 259,
	"place_name": "North Devon"
},
{
	"LIFE_EXPECTANCY": 93,
	"WELLBEING": 25,
	"HOUSING_AFFORDABILITY": 253,
	"ENVIRONMENT": 90,
	"CULTURE": 249,
	"over_all_rank": 18,
	"SAFETY": 158,
	"INCOME": 144,
	"EDUCATION": 98,
	"place_name": "East Devon"
},
{
	"LIFE_EXPECTANCY": 50,
	"WELLBEING": 100,
	"HOUSING_AFFORDABILITY": 288,
	"ENVIRONMENT": 36,
	"CULTURE": 249,
	"over_all_rank": 146,
	"SAFETY": 158,
	"INCOME": 309,
	"EDUCATION": 273,
	"place_name": "Teignbridge"
},
{
	"LIFE_EXPECTANCY": 59,
	"WELLBEING": 115,
	"HOUSING_AFFORDABILITY": 267,
	"ENVIRONMENT": 27,
	"CULTURE": 249,
	"over_all_rank": 31,
	"SAFETY": 158,
	"INCOME": 177,
	"EDUCATION": 112,
	"place_name": "West Devon"
},
{
	"LIFE_EXPECTANCY": 14,
	"WELLBEING": 37,
	"HOUSING_AFFORDABILITY": 207,
	"ENVIRONMENT": 83,
	"CULTURE": 249,
	"over_all_rank": 148,
	"SAFETY": 158,
	"INCOME": 336,
	"EDUCATION": 304,
	"place_name": "Mid Devon"
},
{
	"LIFE_EXPECTANCY": 66,
	"WELLBEING": 161,
	"HOUSING_AFFORDABILITY": 226,
	"ENVIRONMENT": 68,
	"CULTURE": 249,
	"over_all_rank": 130,
	"SAFETY": 232,
	"INCOME": 338,
	"EDUCATION": 66,
	"place_name": "Exeter"
},
{
	"LIFE_EXPECTANCY": 130,
	"WELLBEING": 2,
	"HOUSING_AFFORDABILITY": 330,
	"ENVIRONMENT": 20,
	"CULTURE": 249,
	"over_all_rank": 40,
	"SAFETY": 158,
	"INCOME": 77,
	"EDUCATION": 119,
	"place_name": "Purbeck"
},
{
	"LIFE_EXPECTANCY": 22,
	"WELLBEING": 317,
	"HOUSING_AFFORDABILITY": 351,
	"ENVIRONMENT": 185,
	"CULTURE": 249,
	"over_all_rank": 223,
	"SAFETY": 158,
	"INCOME": 235,
	"EDUCATION": 109,
	"place_name": "Christchurch"
},
{
	"LIFE_EXPECTANCY": 66,
	"WELLBEING": 7,
	"HOUSING_AFFORDABILITY": 309,
	"ENVIRONMENT": 31,
	"CULTURE": 249,
	"over_all_rank": 151,
	"SAFETY": 158,
	"INCOME": 353,
	"EDUCATION": 135,
	"place_name": "West Dorset"
},
{
	"LIFE_EXPECTANCY": 9,
	"WELLBEING": 144,
	"HOUSING_AFFORDABILITY": 340,
	"ENVIRONMENT": 57,
	"CULTURE": 249,
	"over_all_rank": 215,
	"SAFETY": 158,
	"INCOME": 342,
	"EDUCATION": 235,
	"place_name": "East Dorset"
},
{
	"LIFE_EXPECTANCY": 130,
	"WELLBEING": 27,
	"HOUSING_AFFORDABILITY": 307,
	"ENVIRONMENT": 32,
	"CULTURE": 34,
	"over_all_rank": 141,
	"SAFETY": 54,
	"INCOME": 356,
	"EDUCATION": 204,
	"place_name": "Rother"
},
{
	"LIFE_EXPECTANCY": 172,
	"WELLBEING": 352,
	"HOUSING_AFFORDABILITY": 215,
	"ENVIRONMENT": 129,
	"CULTURE": 249,
	"over_all_rank": 236,
	"SAFETY": 158,
	"INCOME": 122,
	"EDUCATION": 317,
	"place_name": "Weymouth and Portland"
},
{
	"LIFE_EXPECTANCY": 17,
	"WELLBEING": 141,
	"HOUSING_AFFORDABILITY": 263,
	"ENVIRONMENT": 196,
	"CULTURE": 249,
	"over_all_rank": 143,
	"SAFETY": 158,
	"INCOME": 300,
	"EDUCATION": 222,
	"place_name": "North Dorset"
},
{
	"LIFE_EXPECTANCY": 285,
	"WELLBEING": 306,
	"HOUSING_AFFORDABILITY": 210,
	"ENVIRONMENT": 93,
	"CULTURE": 34,
	"over_all_rank": 288,
	"SAFETY": 332,
	"INCOME": 232,
	"EDUCATION": 324,
	"place_name": "Hastings"
},
{
	"LIFE_EXPECTANCY": 12,
	"WELLBEING": 244,
	"HOUSING_AFFORDABILITY": 301,
	"ENVIRONMENT": 76,
	"CULTURE": 34,
	"over_all_rank": 19,
	"SAFETY": 60,
	"INCOME": 58,
	"EDUCATION": 111,
	"place_name": "Lewes"
},
{
	"LIFE_EXPECTANCY": 40,
	"WELLBEING": 94,
	"HOUSING_AFFORDABILITY": 237,
	"ENVIRONMENT": 210,
	"CULTURE": 186,
	"over_all_rank": 158,
	"SAFETY": 25,
	"INCOME": 120,
	"EDUCATION": 368,
	"place_name": "Rochford"
},
{
	"LIFE_EXPECTANCY": 40,
	"WELLBEING": 160,
	"HOUSING_AFFORDABILITY": 288,
	"ENVIRONMENT": 33,
	"CULTURE": 34,
	"over_all_rank": 71,
	"SAFETY": 10,
	"INCOME": 243,
	"EDUCATION": 292,
	"place_name": "Wealden"
},
{
	"LIFE_EXPECTANCY": 205,
	"WELLBEING": 189,
	"HOUSING_AFFORDABILITY": 230,
	"ENVIRONMENT": 89,
	"CULTURE": 34,
	"over_all_rank": 63,
	"SAFETY": 238,
	"INCOME": 13,
	"EDUCATION": 207,
	"place_name": "Eastbourne"
},
{
	"LIFE_EXPECTANCY": 123,
	"WELLBEING": 300,
	"HOUSING_AFFORDABILITY": 278,
	"ENVIRONMENT": 201,
	"CULTURE": 186,
	"over_all_rank": 112,
	"SAFETY": 102,
	"INCOME": 1,
	"EDUCATION": 201,
	"place_name": "Brentwood"
},
{
	"LIFE_EXPECTANCY": 130,
	"WELLBEING": 155,
	"HOUSING_AFFORDABILITY": 335,
	"ENVIRONMENT": 229,
	"CULTURE": 186,
	"over_all_rank": 115,
	"SAFETY": 188,
	"INCOME": 2,
	"EDUCATION": 138,
	"place_name": "Epping Forest"
},
{
	"LIFE_EXPECTANCY": 40,
	"WELLBEING": 254,
	"HOUSING_AFFORDABILITY": 300,
	"ENVIRONMENT": 135,
	"CULTURE": 186,
	"over_all_rank": 36,
	"SAFETY": 74,
	"INCOME": 40,
	"EDUCATION": 56,
	"place_name": "Uttlesford"
},
{
	"LIFE_EXPECTANCY": 172,
	"WELLBEING": 191,
	"HOUSING_AFFORDABILITY": 286,
	"ENVIRONMENT": 239,
	"CULTURE": 186,
	"over_all_rank": 285,
	"SAFETY": 288,
	"INCOME": 47,
	"EDUCATION": 369,
	"place_name": "Harlow"
},
{
	"LIFE_EXPECTANCY": 212,
	"WELLBEING": 199,
	"HOUSING_AFFORDABILITY": 238,
	"ENVIRONMENT": 274,
	"CULTURE": 186,
	"over_all_rank": 227,
	"SAFETY": 284,
	"INCOME": 188,
	"EDUCATION": 267,
	"place_name": "Basildon"
},
{
	"LIFE_EXPECTANCY": 311,
	"WELLBEING": 361,
	"HOUSING_AFFORDABILITY": 180,
	"ENVIRONMENT": 255,
	"CULTURE": 186,
	"over_all_rank": 342,
	"SAFETY": 257,
	"INCOME": 119,
	"EDUCATION": 371,
	"place_name": "Tendring"
},
{
	"LIFE_EXPECTANCY": 149,
	"WELLBEING": 168,
	"HOUSING_AFFORDABILITY": 206,
	"ENVIRONMENT": 161,
	"CULTURE": 186,
	"over_all_rank": 39,
	"SAFETY": 26,
	"INCOME": 216,
	"EDUCATION": 141,
	"place_name": "Maldon"
},
{
	"LIFE_EXPECTANCY": 50,
	"WELLBEING": 105,
	"HOUSING_AFFORDABILITY": 278,
	"ENVIRONMENT": 283,
	"CULTURE": 186,
	"over_all_rank": 111,
	"SAFETY": 182,
	"INCOME": 179,
	"EDUCATION": 178,
	"place_name": "Chelmsford"
},
{
	"LIFE_EXPECTANCY": 172,
	"WELLBEING": 148,
	"HOUSING_AFFORDABILITY": 210,
	"ENVIRONMENT": 236,
	"CULTURE": 186,
	"over_all_rank": 123,
	"SAFETY": 215,
	"INCOME": 237,
	"EDUCATION": 151,
	"place_name": "Colchester"
},
{
	"LIFE_EXPECTANCY": 205,
	"WELLBEING": 32,
	"HOUSING_AFFORDABILITY": 208,
	"ENVIRONMENT": 199,
	"CULTURE": 186,
	"over_all_rank": 99,
	"SAFETY": 72,
	"INCOME": 190,
	"EDUCATION": 299,
	"place_name": "Braintree"
},
{
	"LIFE_EXPECTANCY": 229,
	"WELLBEING": 22,
	"HOUSING_AFFORDABILITY": 290,
	"ENVIRONMENT": 250,
	"CULTURE": 186,
	"over_all_rank": 315,
	"SAFETY": 68,
	"INCOME": 365,
	"EDUCATION": 360,
	"place_name": "Castle Point"
},
{
	"LIFE_EXPECTANCY": 140,
	"WELLBEING": 169,
	"HOUSING_AFFORDABILITY": 157,
	"ENVIRONMENT": 50,
	"CULTURE": 249,
	"over_all_rank": 81,
	"SAFETY": 4,
	"INCOME": 207,
	"EDUCATION": 320,
	"place_name": "Forest of Dean"
},
{
	"LIFE_EXPECTANCY": 32,
	"WELLBEING": 174,
	"HOUSING_AFFORDABILITY": 333,
	"ENVIRONMENT": 73,
	"CULTURE": 249,
	"over_all_rank": 133,
	"SAFETY": 17,
	"INCOME": 339,
	"EDUCATION": 21,
	"place_name": "Cotswold"
},
{
	"LIFE_EXPECTANCY": 195,
	"WELLBEING": 273,
	"HOUSING_AFFORDABILITY": 256,
	"ENVIRONMENT": 77,
	"CULTURE": 249,
	"over_all_rank": 87,
	"SAFETY": 9,
	"INCOME": 215,
	"EDUCATION": 95,
	"place_name": "Stroud"
},
{
	"LIFE_EXPECTANCY": 172,
	"WELLBEING": 218,
	"HOUSING_AFFORDABILITY": 230,
	"ENVIRONMENT": 105,
	"CULTURE": 249,
	"over_all_rank": 42,
	"SAFETY": 200,
	"INCOME": 41,
	"EDUCATION": 30,
	"place_name": "Cheltenham"
},
{
	"LIFE_EXPECTANCY": 75,
	"WELLBEING": 166,
	"HOUSING_AFFORDABILITY": 320,
	"ENVIRONMENT": 71,
	"CULTURE": 34,
	"over_all_rank": 14,
	"SAFETY": 64,
	"INCOME": 27,
	"EDUCATION": 89,
	"place_name": "East Hampshire"
},
{
	"LIFE_EXPECTANCY": 50,
	"WELLBEING": 304,
	"HOUSING_AFFORDABILITY": 205,
	"ENVIRONMENT": 148,
	"CULTURE": 249,
	"over_all_rank": 207,
	"SAFETY": 19,
	"INCOME": 351,
	"EDUCATION": 228,
	"place_name": "Tewkesbury"
},
{
	"LIFE_EXPECTANCY": 293,
	"WELLBEING": 172,
	"HOUSING_AFFORDABILITY": 147,
	"ENVIRONMENT": 174,
	"CULTURE": 249,
	"over_all_rank": 297,
	"SAFETY": 252,
	"INCOME": 344,
	"EDUCATION": 337,
	"place_name": "Gloucester"
},
{
	"LIFE_EXPECTANCY": 32,
	"WELLBEING": 131,
	"HOUSING_AFFORDABILITY": 305,
	"ENVIRONMENT": 122,
	"CULTURE": 34,
	"over_all_rank": 159,
	"SAFETY": 98,
	"INCOME": 348,
	"EDUCATION": 225,
	"place_name": "New Forest"
},
{
	"LIFE_EXPECTANCY": 84,
	"WELLBEING": 190,
	"HOUSING_AFFORDABILITY": 246,
	"ENVIRONMENT": 263,
	"CULTURE": 34,
	"over_all_rank": 55,
	"SAFETY": 100,
	"INCOME": 124,
	"EDUCATION": 148,
	"place_name": "Eastleigh"
},
{
	"LIFE_EXPECTANCY": 183,
	"WELLBEING": 56,
	"HOUSING_AFFORDABILITY": 220,
	"ENVIRONMENT": 66,
	"CULTURE": 34,
	"over_all_rank": 32,
	"SAFETY": 145,
	"INCOME": 247,
	"EDUCATION": 127,
	"place_name": "Basingstoke and Deane"
},
{
	"LIFE_EXPECTANCY": 114,
	"WELLBEING": 158,
	"HOUSING_AFFORDABILITY": 247,
	"ENVIRONMENT": 364,
	"CULTURE": 34,
	"over_all_rank": 211,
	"SAFETY": 93,
	"INCOME": 282,
	"EDUCATION": 139,
	"place_name": "Fareham"
},
{
	"LIFE_EXPECTANCY": 84,
	"WELLBEING": 112,
	"HOUSING_AFFORDABILITY": 253,
	"ENVIRONMENT": 55,
	"CULTURE": 34,
	"over_all_rank": 21,
	"SAFETY": 107,
	"INCOME": 264,
	"EDUCATION": 65,
	"place_name": "Test Valley"
},
{
	"LIFE_EXPECTANCY": 237,
	"WELLBEING": 58,
	"HOUSING_AFFORDABILITY": 144,
	"ENVIRONMENT": 333,
	"CULTURE": 34,
	"over_all_rank": 298,
	"SAFETY": 266,
	"INCOME": 352,
	"EDUCATION": 319,
	"place_name": "Gosport"
},
{
	"LIFE_EXPECTANCY": 172,
	"WELLBEING": 88,
	"HOUSING_AFFORDABILITY": 273,
	"ENVIRONMENT": 225,
	"CULTURE": 34,
	"over_all_rank": 138,
	"SAFETY": 273,
	"INCOME": 199,
	"EDUCATION": 197,
	"place_name": "Havant"
},
{
	"LIFE_EXPECTANCY": 183,
	"WELLBEING": 365,
	"HOUSING_AFFORDABILITY": 291,
	"ENVIRONMENT": 132,
	"CULTURE": 34,
	"over_all_rank": 243,
	"SAFETY": 145,
	"INCOME": 184,
	"EDUCATION": 239,
	"place_name": "Rushmoor"
},
{
	"LIFE_EXPECTANCY": 1,
	"WELLBEING": 116,
	"HOUSING_AFFORDABILITY": 324,
	"ENVIRONMENT": 52,
	"CULTURE": 34,
	"over_all_rank": 110,
	"SAFETY": 145,
	"INCOME": 334,
	"EDUCATION": 121,
	"place_name": "Hart"
},
{
	"LIFE_EXPECTANCY": 32,
	"WELLBEING": 5,
	"HOUSING_AFFORDABILITY": 307,
	"ENVIRONMENT": 103,
	"CULTURE": 34,
	"over_all_rank": 6,
	"SAFETY": 122,
	"INCOME": 166,
	"EDUCATION": 24,
	"place_name": "Winchester"
},
{
	"LIFE_EXPECTANCY": 50,
	"WELLBEING": 103,
	"HOUSING_AFFORDABILITY": 311,
	"ENVIRONMENT": 194,
	"CULTURE": 186,
	"over_all_rank": 212,
	"SAFETY": 227,
	"INCOME": 160,
	"EDUCATION": 349,
	"place_name": "Broxbourne"
},
{
	"LIFE_EXPECTANCY": 75,
	"WELLBEING": 201,
	"HOUSING_AFFORDABILITY": 365,
	"ENVIRONMENT": 216,
	"CULTURE": 186,
	"over_all_rank": 178,
	"SAFETY": 176,
	"INCOME": 102,
	"EDUCATION": 130,
	"place_name": "Hertsmere"
},
{
	"LIFE_EXPECTANCY": 75,
	"WELLBEING": 142,
	"HOUSING_AFFORDABILITY": 299,
	"ENVIRONMENT": 108,
	"CULTURE": 186,
	"over_all_rank": 126,
	"SAFETY": 180,
	"INCOME": 317,
	"EDUCATION": 104,
	"place_name": "Dacorum"
},
{
	"LIFE_EXPECTANCY": 59,
	"WELLBEING": 99,
	"HOUSING_AFFORDABILITY": 361,
	"ENVIRONMENT": 143,
	"CULTURE": 186,
	"over_all_rank": 192,
	"SAFETY": 34,
	"INCOME": 280,
	"EDUCATION": 268,
	"place_name": "Three Rivers"
},
{
	"LIFE_EXPECTANCY": 9,
	"WELLBEING": 207,
	"HOUSING_AFFORDABILITY": 310,
	"ENVIRONMENT": 155,
	"CULTURE": 186,
	"over_all_rank": 29,
	"SAFETY": 70,
	"INCOME": 34,
	"EDUCATION": 68,
	"place_name": "East Hertfordshire"
},
{
	"LIFE_EXPECTANCY": 59,
	"WELLBEING": 86,
	"HOUSING_AFFORDABILITY": 350,
	"ENVIRONMENT": 160,
	"CULTURE": 186,
	"over_all_rank": 49,
	"SAFETY": 96,
	"INCOME": 71,
	"EDUCATION": 19,
	"place_name": "St Albans"
},
{
	"LIFE_EXPECTANCY": 103,
	"WELLBEING": 222,
	"HOUSING_AFFORDABILITY": 329,
	"ENVIRONMENT": 171,
	"CULTURE": 186,
	"over_all_rank": 107,
	"SAFETY": 223,
	"INCOME": 36,
	"EDUCATION": 90,
	"place_name": "Welwyn Hatfield"
},
{
	"LIFE_EXPECTANCY": 205,
	"WELLBEING": 111,
	"HOUSING_AFFORDABILITY": 273,
	"ENVIRONMENT": 167,
	"CULTURE": 186,
	"over_all_rank": 52,
	"SAFETY": 62,
	"INCOME": 142,
	"EDUCATION": 132,
	"place_name": "North Hertfordshire"
},
{
	"LIFE_EXPECTANCY": 212,
	"WELLBEING": 41,
	"HOUSING_AFFORDABILITY": 304,
	"ENVIRONMENT": 183,
	"CULTURE": 186,
	"over_all_rank": 105,
	"SAFETY": 276,
	"INCOME": 30,
	"EDUCATION": 137,
	"place_name": "Watford"
},
{
	"LIFE_EXPECTANCY": 259,
	"WELLBEING": 287,
	"HOUSING_AFFORDABILITY": 228,
	"ENVIRONMENT": 181,
	"CULTURE": 34,
	"over_all_rank": 311,
	"SAFETY": 327,
	"INCOME": 346,
	"EDUCATION": 284,
	"place_name": "Thanet"
},
{
	"LIFE_EXPECTANCY": 285,
	"WELLBEING": 242,
	"HOUSING_AFFORDABILITY": 255,
	"ENVIRONMENT": 107,
	"CULTURE": 186,
	"over_all_rank": 204,
	"SAFETY": 313,
	"INCOME": 63,
	"EDUCATION": 214,
	"place_name": "Stevenage"
},
{
	"LIFE_EXPECTANCY": 159,
	"WELLBEING": 121,
	"HOUSING_AFFORDABILITY": 289,
	"ENVIRONMENT": 101,
	"CULTURE": 34,
	"over_all_rank": 69,
	"SAFETY": 217,
	"INCOME": 202,
	"EDUCATION": 117,
	"place_name": "Canterbury"
},
{
	"LIFE_EXPECTANCY": 75,
	"WELLBEING": 73,
	"HOUSING_AFFORDABILITY": 331,
	"ENVIRONMENT": 47,
	"CULTURE": 34,
	"over_all_rank": 22,
	"SAFETY": 65,
	"INCOME": 159,
	"EDUCATION": 84,
	"place_name": "Tunbridge Wells"
},
{
	"LIFE_EXPECTANCY": 195,
	"WELLBEING": 257,
	"HOUSING_AFFORDABILITY": 268,
	"ENVIRONMENT": 147,
	"CULTURE": 34,
	"over_all_rank": 307,
	"SAFETY": 224,
	"INCOME": 377,
	"EDUCATION": 266,
	"place_name": "Shepway"
},
{
	"LIFE_EXPECTANCY": 50,
	"WELLBEING": 42,
	"HOUSING_AFFORDABILITY": 339,
	"ENVIRONMENT": 72,
	"CULTURE": 34,
	"over_all_rank": 62,
	"SAFETY": 94,
	"INCOME": 16,
	"EDUCATION": 296,
	"place_name": "Sevenoaks"
},
{
	"LIFE_EXPECTANCY": 40,
	"WELLBEING": 50,
	"HOUSING_AFFORDABILITY": 292,
	"ENVIRONMENT": 118,
	"CULTURE": 34,
	"over_all_rank": 30,
	"SAFETY": 95,
	"INCOME": 182,
	"EDUCATION": 205,
	"place_name": "Tonbridge and Malling"
},
{
	"LIFE_EXPECTANCY": 114,
	"WELLBEING": 177,
	"HOUSING_AFFORDABILITY": 251,
	"ENVIRONMENT": 120,
	"CULTURE": 34,
	"over_all_rank": 255,
	"SAFETY": 141,
	"INCOME": 373,
	"EDUCATION": 313,
	"place_name": "Ashford"
},
{
	"LIFE_EXPECTANCY": 229,
	"WELLBEING": 282,
	"HOUSING_AFFORDABILITY": 203,
	"ENVIRONMENT": 240,
	"CULTURE": 34,
	"over_all_rank": 162,
	"SAFETY": 253,
	"INCOME": 73,
	"EDUCATION": 219,
	"place_name": "Swale"
},
{
	"LIFE_EXPECTANCY": 304,
	"WELLBEING": 272,
	"HOUSING_AFFORDABILITY": 64,
	"ENVIRONMENT": 87,
	"CULTURE": 287,
	"over_all_rank": 194,
	"SAFETY": 214,
	"INCOME": 261,
	"EDUCATION": 203,
	"place_name": "Lancaster"
},
{
	"LIFE_EXPECTANCY": 159,
	"WELLBEING": 139,
	"HOUSING_AFFORDABILITY": 267,
	"ENVIRONMENT": 182,
	"CULTURE": 34,
	"over_all_rank": 45,
	"SAFETY": 192,
	"INCOME": 121,
	"EDUCATION": 75,
	"place_name": "Maidstone"
},
{
	"LIFE_EXPECTANCY": 159,
	"WELLBEING": 75,
	"HOUSING_AFFORDABILITY": 96,
	"ENVIRONMENT": 211,
	"CULTURE": 287,
	"over_all_rank": 65,
	"SAFETY": 59,
	"INCOME": 257,
	"EDUCATION": 191,
	"place_name": "South Ribble"
},
{
	"LIFE_EXPECTANCY": 268,
	"WELLBEING": 296,
	"HOUSING_AFFORDABILITY": 244,
	"ENVIRONMENT": 292,
	"CULTURE": 34,
	"over_all_rank": 256,
	"SAFETY": 145,
	"INCOME": 209,
	"EDUCATION": 314,
	"place_name": "Dartford"
},
{
	"LIFE_EXPECTANCY": 195,
	"WELLBEING": 357,
	"HOUSING_AFFORDABILITY": 249,
	"ENVIRONMENT": 241,
	"CULTURE": 34,
	"over_all_rank": 246,
	"SAFETY": 145,
	"INCOME": 299,
	"EDUCATION": 92,
	"place_name": "Gravesham"
},
{
	"LIFE_EXPECTANCY": 247,
	"WELLBEING": 369,
	"HOUSING_AFFORDABILITY": 132,
	"ENVIRONMENT": 228,
	"CULTURE": 287,
	"over_all_rank": 272,
	"SAFETY": 47,
	"INCOME": 32,
	"EDUCATION": 329,
	"place_name": "West Lancashire"
},
{
	"LIFE_EXPECTANCY": 247,
	"WELLBEING": 340,
	"HOUSING_AFFORDABILITY": 235,
	"ENVIRONMENT": 207,
	"CULTURE": 34,
	"over_all_rank": 251,
	"SAFETY": 193,
	"INCOME": 256,
	"EDUCATION": 272,
	"place_name": "Dover"
},
{
	"LIFE_EXPECTANCY": 276,
	"WELLBEING": 170,
	"HOUSING_AFFORDABILITY": 94,
	"ENVIRONMENT": 238,
	"CULTURE": 287,
	"over_all_rank": 48,
	"SAFETY": 89,
	"INCOME": 9,
	"EDUCATION": 54,
	"place_name": "Chorley"
},
{
	"LIFE_EXPECTANCY": 293,
	"WELLBEING": 133,
	"HOUSING_AFFORDABILITY": 52,
	"ENVIRONMENT": 285,
	"CULTURE": 287,
	"over_all_rank": 101,
	"SAFETY": 126,
	"INCOME": 42,
	"EDUCATION": 169,
	"place_name": "Rossendale"
},
{
	"LIFE_EXPECTANCY": 259,
	"WELLBEING": 24,
	"HOUSING_AFFORDABILITY": 169,
	"ENVIRONMENT": 115,
	"CULTURE": 287,
	"over_all_rank": 127,
	"SAFETY": 55,
	"INCOME": 349,
	"EDUCATION": 73,
	"place_name": "Fylde"
},
{
	"LIFE_EXPECTANCY": 322,
	"WELLBEING": 376,
	"HOUSING_AFFORDABILITY": 50,
	"ENVIRONMENT": 168,
	"CULTURE": 287,
	"over_all_rank": 345,
	"SAFETY": 321,
	"INCOME": 279,
	"EDUCATION": 298,
	"place_name": "Preston"
},
{
	"LIFE_EXPECTANCY": 268,
	"WELLBEING": 252,
	"HOUSING_AFFORDABILITY": 87,
	"ENVIRONMENT": 96,
	"CULTURE": 287,
	"over_all_rank": 67,
	"SAFETY": 87,
	"INCOME": 53,
	"EDUCATION": 183,
	"place_name": "Wyre"
},
{
	"LIFE_EXPECTANCY": 328,
	"WELLBEING": 129,
	"HOUSING_AFFORDABILITY": 5,
	"ENVIRONMENT": 275,
	"CULTURE": 287,
	"over_all_rank": 206,
	"SAFETY": 183,
	"INCOME": 205,
	"EDUCATION": 262,
	"place_name": "Pendle"
},
{
	"LIFE_EXPECTANCY": 183,
	"WELLBEING": 351,
	"HOUSING_AFFORDABILITY": 177,
	"ENVIRONMENT": 62,
	"CULTURE": 287,
	"over_all_rank": 196,
	"SAFETY": 16,
	"INCOME": 323,
	"EDUCATION": 71,
	"place_name": "Ribble Valley"
},
{
	"LIFE_EXPECTANCY": 347,
	"WELLBEING": 346,
	"HOUSING_AFFORDABILITY": 11,
	"ENVIRONMENT": 104,
	"CULTURE": 287,
	"over_all_rank": 308,
	"SAFETY": 268,
	"INCOME": 224,
	"EDUCATION": 321,
	"place_name": "Hyndburn"
},
{
	"LIFE_EXPECTANCY": 93,
	"WELLBEING": 74,
	"HOUSING_AFFORDABILITY": 142,
	"ENVIRONMENT": 294,
	"CULTURE": 327,
	"over_all_rank": 122,
	"SAFETY": 80,
	"INCOME": 262,
	"EDUCATION": 189,
	"place_name": "Hinckley and Bosworth"
},
{
	"LIFE_EXPECTANCY": 373,
	"WELLBEING": 380,
	"HOUSING_AFFORDABILITY": 3,
	"ENVIRONMENT": 184,
	"CULTURE": 287,
	"over_all_rank": 375,
	"SAFETY": 344,
	"INCOME": 297,
	"EDUCATION": 339,
	"place_name": "Burnley"
},
{
	"LIFE_EXPECTANCY": 183,
	"WELLBEING": 130,
	"HOUSING_AFFORDABILITY": 161,
	"ENVIRONMENT": 324,
	"CULTURE": 327,
	"over_all_rank": 242,
	"SAFETY": 73,
	"INCOME": 350,
	"EDUCATION": 163,
	"place_name": "North West Leicestershire"
},
{
	"LIFE_EXPECTANCY": 140,
	"WELLBEING": 212,
	"HOUSING_AFFORDABILITY": 184,
	"ENVIRONMENT": 267,
	"CULTURE": 327,
	"over_all_rank": 281,
	"SAFETY": 39,
	"INCOME": 364,
	"EDUCATION": 294,
	"place_name": "Melton"
},
{
	"LIFE_EXPECTANCY": 66,
	"WELLBEING": 113,
	"HOUSING_AFFORDABILITY": 182,
	"ENVIRONMENT": 291,
	"CULTURE": 327,
	"over_all_rank": 89,
	"SAFETY": 23,
	"INCOME": 238,
	"EDUCATION": 108,
	"place_name": "Harborough"
},
{
	"LIFE_EXPECTANCY": 84,
	"WELLBEING": 206,
	"HOUSING_AFFORDABILITY": 125,
	"ENVIRONMENT": 308,
	"CULTURE": 327,
	"over_all_rank": 232,
	"SAFETY": 90,
	"INCOME": 347,
	"EDUCATION": 210,
	"place_name": "Blaby"
},
{
	"LIFE_EXPECTANCY": 159,
	"WELLBEING": 68,
	"HOUSING_AFFORDABILITY": 139,
	"ENVIRONMENT": 321,
	"CULTURE": 327,
	"over_all_rank": 83,
	"SAFETY": 124,
	"INCOME": 70,
	"EDUCATION": 102,
	"place_name": "Charnwood"
},
{
	"LIFE_EXPECTANCY": 140,
	"WELLBEING": 80,
	"HOUSING_AFFORDABILITY": 102,
	"ENVIRONMENT": 344,
	"CULTURE": 327,
	"over_all_rank": 234,
	"SAFETY": 51,
	"INCOME": 335,
	"EDUCATION": 246,
	"place_name": "West Lindsey"
},
{
	"LIFE_EXPECTANCY": 103,
	"WELLBEING": 13,
	"HOUSING_AFFORDABILITY": 187,
	"ENVIRONMENT": 257,
	"CULTURE": 327,
	"over_all_rank": 76,
	"SAFETY": 53,
	"INCOME": 56,
	"EDUCATION": 281,
	"place_name": "Oadby and Wigston"
},
{
	"LIFE_EXPECTANCY": 212,
	"WELLBEING": 156,
	"HOUSING_AFFORDABILITY": 129,
	"ENVIRONMENT": 357,
	"CULTURE": 327,
	"over_all_rank": 339,
	"SAFETY": 33,
	"INCOME": 371,
	"EDUCATION": 352,
	"place_name": "South Holland"
},
{
	"LIFE_EXPECTANCY": 130,
	"WELLBEING": 203,
	"HOUSING_AFFORDABILITY": 187,
	"ENVIRONMENT": 242,
	"CULTURE": 327,
	"over_all_rank": 150,
	"SAFETY": 29,
	"INCOME": 290,
	"EDUCATION": 172,
	"place_name": "South Kesteven"
},
{
	"LIFE_EXPECTANCY": 247,
	"WELLBEING": 322,
	"HOUSING_AFFORDABILITY": 134,
	"ENVIRONMENT": 359,
	"CULTURE": 327,
	"over_all_rank": 377,
	"SAFETY": 168,
	"INCOME": 376,
	"EDUCATION": 380,
	"place_name": "Boston"
},
{
	"LIFE_EXPECTANCY": 84,
	"WELLBEING": 14,
	"HOUSING_AFFORDABILITY": 136,
	"ENVIRONMENT": 348,
	"CULTURE": 327,
	"over_all_rank": 106,
	"SAFETY": 1,
	"INCOME": 57,
	"EDUCATION": 250,
	"place_name": "North Kesteven"
},
{
	"LIFE_EXPECTANCY": 285,
	"WELLBEING": 101,
	"HOUSING_AFFORDABILITY": 106,
	"ENVIRONMENT": 303,
	"CULTURE": 327,
	"over_all_rank": 332,
	"SAFETY": 103,
	"INCOME": 325,
	"EDUCATION": 378,
	"place_name": "East Lindsey"
},
{
	"LIFE_EXPECTANCY": 304,
	"WELLBEING": 72,
	"HOUSING_AFFORDABILITY": 79,
	"ENVIRONMENT": 327,
	"CULTURE": 327,
	"over_all_rank": 300,
	"SAFETY": 314,
	"INCOME": 301,
	"EDUCATION": 242,
	"place_name": "Lincoln"
},
{
	"LIFE_EXPECTANCY": 268,
	"WELLBEING": 120,
	"HOUSING_AFFORDABILITY": 115,
	"ENVIRONMENT": 265,
	"CULTURE": 186,
	"over_all_rank": 321,
	"SAFETY": 278,
	"INCOME": 321,
	"EDUCATION": 374,
	"place_name": "Great Yarmouth"
},
{
	"LIFE_EXPECTANCY": 84,
	"WELLBEING": 253,
	"HOUSING_AFFORDABILITY": 191,
	"ENVIRONMENT": 282,
	"CULTURE": 186,
	"over_all_rank": 156,
	"SAFETY": 18,
	"INCOME": 333,
	"EDUCATION": 97,
	"place_name": "South Norfolk"
},
{
	"LIFE_EXPECTANCY": 149,
	"WELLBEING": 29,
	"HOUSING_AFFORDABILITY": 165,
	"ENVIRONMENT": 204,
	"CULTURE": 186,
	"over_all_rank": 163,
	"SAFETY": 76,
	"INCOME": 303,
	"EDUCATION": 340,
	"place_name": "King's Lynn and West Norfolk"
},
{
	"LIFE_EXPECTANCY": 220,
	"WELLBEING": 67,
	"HOUSING_AFFORDABILITY": 217,
	"ENVIRONMENT": 141,
	"CULTURE": 186,
	"over_all_rank": 250,
	"SAFETY": 57,
	"INCOME": 378,
	"EDUCATION": 260,
	"place_name": "Breckland"
},
{
	"LIFE_EXPECTANCY": 220,
	"WELLBEING": 311,
	"HOUSING_AFFORDABILITY": 147,
	"ENVIRONMENT": 367,
	"CULTURE": 186,
	"over_all_rank": 325,
	"SAFETY": 351,
	"INCOME": 233,
	"EDUCATION": 168,
	"place_name": "Norwich"
},
{
	"LIFE_EXPECTANCY": 32,
	"WELLBEING": 6,
	"HOUSING_AFFORDABILITY": 279,
	"ENVIRONMENT": 256,
	"CULTURE": 327,
	"over_all_rank": 68,
	"SAFETY": 119,
	"INCOME": 19,
	"EDUCATION": 192,
	"place_name": "South Northamptonshire"
},
{
	"LIFE_EXPECTANCY": 114,
	"WELLBEING": 359,
	"HOUSING_AFFORDABILITY": 117,
	"ENVIRONMENT": 198,
	"CULTURE": 327,
	"over_all_rank": 202,
	"SAFETY": 78,
	"INCOME": 231,
	"EDUCATION": 136,
	"place_name": "East Northamptonshire"
},
{
	"LIFE_EXPECTANCY": 195,
	"WELLBEING": 97,
	"HOUSING_AFFORDABILITY": 250,
	"ENVIRONMENT": 152,
	"CULTURE": 327,
	"over_all_rank": 96,
	"SAFETY": 119,
	"INCOME": 29,
	"EDUCATION": 251,
	"place_name": "Daventry"
},
{
	"LIFE_EXPECTANCY": 247,
	"WELLBEING": 180,
	"HOUSING_AFFORDABILITY": 147,
	"ENVIRONMENT": 178,
	"CULTURE": 327,
	"over_all_rank": 264,
	"SAFETY": 335,
	"INCOME": 314,
	"EDUCATION": 216,
	"place_name": "Northampton"
},
{
	"LIFE_EXPECTANCY": 229,
	"WELLBEING": 98,
	"HOUSING_AFFORDABILITY": 175,
	"ENVIRONMENT": 298,
	"CULTURE": 327,
	"over_all_rank": 330,
	"SAFETY": 286,
	"INCOME": 329,
	"EDUCATION": 364,
	"place_name": "Wellingborough"
},
{
	"LIFE_EXPECTANCY": 195,
	"WELLBEING": 124,
	"HOUSING_AFFORDABILITY": 122,
	"ENVIRONMENT": 278,
	"CULTURE": 327,
	"over_all_rank": 244,
	"SAFETY": 246,
	"INCOME": 310,
	"EDUCATION": 271,
	"place_name": "Kettering"
},
{
	"LIFE_EXPECTANCY": 356,
	"WELLBEING": 377,
	"HOUSING_AFFORDABILITY": 139,
	"ENVIRONMENT": 114,
	"CULTURE": 327,
	"over_all_rank": 378,
	"SAFETY": 241,
	"INCOME": 362,
	"EDUCATION": 375,
	"place_name": "Corby"
},
{
	"LIFE_EXPECTANCY": 212,
	"WELLBEING": 267,
	"HOUSING_AFFORDABILITY": 104,
	"ENVIRONMENT": 127,
	"CULTURE": 220,
	"over_all_rank": 160,
	"SAFETY": 302,
	"INCOME": 213,
	"EDUCATION": 184,
	"place_name": "Scarborough"
},
{
	"LIFE_EXPECTANCY": 93,
	"WELLBEING": 226,
	"HOUSING_AFFORDABILITY": 120,
	"ENVIRONMENT": 363,
	"CULTURE": 220,
	"over_all_rank": 254,
	"SAFETY": 302,
	"INCOME": 161,
	"EDUCATION": 257,
	"place_name": "Selby"
},
{
	"LIFE_EXPECTANCY": 32,
	"WELLBEING": 59,
	"HOUSING_AFFORDABILITY": 233,
	"ENVIRONMENT": 136,
	"CULTURE": 220,
	"over_all_rank": 201,
	"SAFETY": 302,
	"INCOME": 366,
	"EDUCATION": 34,
	"place_name": "Craven"
},
{
	"LIFE_EXPECTANCY": 149,
	"WELLBEING": 71,
	"HOUSING_AFFORDABILITY": 159,
	"ENVIRONMENT": 67,
	"CULTURE": 220,
	"over_all_rank": 199,
	"SAFETY": 302,
	"INCOME": 228,
	"EDUCATION": 350,
	"place_name": "Richmondshire"
},
{
	"LIFE_EXPECTANCY": 75,
	"WELLBEING": 151,
	"HOUSING_AFFORDABILITY": 261,
	"ENVIRONMENT": 138,
	"CULTURE": 220,
	"over_all_rank": 74,
	"SAFETY": 302,
	"INCOME": 51,
	"EDUCATION": 87,
	"place_name": "Harrogate"
},
{
	"LIFE_EXPECTANCY": 123,
	"WELLBEING": 51,
	"HOUSING_AFFORDABILITY": 262,
	"ENVIRONMENT": 74,
	"CULTURE": 220,
	"over_all_rank": 120,
	"SAFETY": 302,
	"INCOME": 248,
	"EDUCATION": 158,
	"place_name": "Ryedale"
},
{
	"LIFE_EXPECTANCY": 22,
	"WELLBEING": 16,
	"HOUSING_AFFORDABILITY": 205,
	"ENVIRONMENT": 203,
	"CULTURE": 220,
	"over_all_rank": 296,
	"SAFETY": 302,
	"INCOME": 374,
	"EDUCATION": 326,
	"place_name": "Hambleton"
},
{
	"LIFE_EXPECTANCY": 149,
	"WELLBEING": 44,
	"HOUSING_AFFORDABILITY": 77,
	"ENVIRONMENT": 289,
	"CULTURE": 327,
	"over_all_rank": 43,
	"SAFETY": 119,
	"INCOME": 81,
	"EDUCATION": 103,
	"place_name": "Gedling"
},
{
	"LIFE_EXPECTANCY": 22,
	"WELLBEING": 78,
	"HOUSING_AFFORDABILITY": 176,
	"ENVIRONMENT": 320,
	"CULTURE": 327,
	"over_all_rank": 109,
	"SAFETY": 119,
	"INCOME": 259,
	"EDUCATION": 46,
	"place_name": "Rushcliffe"
},
{
	"LIFE_EXPECTANCY": 316,
	"WELLBEING": 107,
	"HOUSING_AFFORDABILITY": 56,
	"ENVIRONMENT": 272,
	"CULTURE": 327,
	"over_all_rank": 340,
	"SAFETY": 210,
	"INCOME": 345,
	"EDUCATION": 376,
	"place_name": "Ashfield"
},
{
	"LIFE_EXPECTANCY": 220,
	"WELLBEING": 11,
	"HOUSING_AFFORDABILITY": 126,
	"ENVIRONMENT": 330,
	"CULTURE": 327,
	"over_all_rank": 249,
	"SAFETY": 125,
	"INCOME": 326,
	"EDUCATION": 285,
	"place_name": "Newark and Sherwood"
},
{
	"LIFE_EXPECTANCY": 311,
	"WELLBEING": 123,
	"HOUSING_AFFORDABILITY": 43,
	"ENVIRONMENT": 299,
	"CULTURE": 327,
	"over_all_rank": 284,
	"SAFETY": 229,
	"INCOME": 276,
	"EDUCATION": 322,
	"place_name": "Bassetlaw"
},
{
	"LIFE_EXPECTANCY": 195,
	"WELLBEING": 10,
	"HOUSING_AFFORDABILITY": 54,
	"ENVIRONMENT": 328,
	"CULTURE": 327,
	"over_all_rank": 142,
	"SAFETY": 119,
	"INCOME": 242,
	"EDUCATION": 175,
	"place_name": "Broxtowe"
},
{
	"LIFE_EXPECTANCY": 322,
	"WELLBEING": 258,
	"HOUSING_AFFORDABILITY": 85,
	"ENVIRONMENT": 280,
	"CULTURE": 327,
	"over_all_rank": 337,
	"SAFETY": 269,
	"INCOME": 295,
	"EDUCATION": 363,
	"place_name": "Mansfield"
},
{
	"LIFE_EXPECTANCY": 50,
	"WELLBEING": 91,
	"HOUSING_AFFORDABILITY": 298,
	"ENVIRONMENT": 130,
	"CULTURE": 34,
	"over_all_rank": 35,
	"SAFETY": 15,
	"INCOME": 293,
	"EDUCATION": 36,
	"place_name": "Vale of White Horse"
},
{
	"LIFE_EXPECTANCY": 26,
	"WELLBEING": 136,
	"HOUSING_AFFORDABILITY": 313,
	"ENVIRONMENT": 91,
	"CULTURE": 34,
	"over_all_rank": 5,
	"SAFETY": 24,
	"INCOME": 82,
	"EDUCATION": 31,
	"place_name": "South Oxfordshire"
},
{
	"LIFE_EXPECTANCY": 114,
	"WELLBEING": 47,
	"HOUSING_AFFORDABILITY": 295,
	"ENVIRONMENT": 80,
	"CULTURE": 34,
	"over_all_rank": 3,
	"SAFETY": 6,
	"INCOME": 117,
	"EDUCATION": 74,
	"place_name": "West Oxfordshire"
},
{
	"LIFE_EXPECTANCY": 159,
	"WELLBEING": 125,
	"HOUSING_AFFORDABILITY": 280,
	"ENVIRONMENT": 286,
	"CULTURE": 34,
	"over_all_rank": 171,
	"SAFETY": 190,
	"INCOME": 315,
	"EDUCATION": 86,
	"place_name": "Cherwell"
},
{
	"LIFE_EXPECTANCY": 84,
	"WELLBEING": 186,
	"HOUSING_AFFORDABILITY": 354,
	"ENVIRONMENT": 109,
	"CULTURE": 34,
	"over_all_rank": 147,
	"SAFETY": 316,
	"INCOME": 91,
	"EDUCATION": 12,
	"place_name": "Oxford"
},
{
	"LIFE_EXPECTANCY": 26,
	"WELLBEING": 93,
	"HOUSING_AFFORDABILITY": 258,
	"ENVIRONMENT": 44,
	"CULTURE": 249,
	"over_all_rank": 37,
	"SAFETY": 158,
	"INCOME": 235,
	"EDUCATION": 125,
	"place_name": "West Somerset"
},
{
	"LIFE_EXPECTANCY": 103,
	"WELLBEING": 179,
	"HOUSING_AFFORDABILITY": 225,
	"ENVIRONMENT": 162,
	"CULTURE": 249,
	"over_all_rank": 170,
	"SAFETY": 158,
	"INCOME": 327,
	"EDUCATION": 236,
	"place_name": "Mendip"
},
{
	"LIFE_EXPECTANCY": 149,
	"WELLBEING": 298,
	"HOUSING_AFFORDABILITY": 202,
	"ENVIRONMENT": 121,
	"CULTURE": 249,
	"over_all_rank": 119,
	"SAFETY": 158,
	"INCOME": 252,
	"EDUCATION": 64,
	"place_name": "Taunton Deane"
},
{
	"LIFE_EXPECTANCY": 75,
	"WELLBEING": 28,
	"HOUSING_AFFORDABILITY": 222,
	"ENVIRONMENT": 208,
	"CULTURE": 249,
	"over_all_rank": 85,
	"SAFETY": 158,
	"INCOME": 277,
	"EDUCATION": 180,
	"place_name": "South Somerset"
},
{
	"LIFE_EXPECTANCY": 123,
	"WELLBEING": 61,
	"HOUSING_AFFORDABILITY": 213,
	"ENVIRONMENT": 213,
	"CULTURE": 249,
	"over_all_rank": 299,
	"SAFETY": 158,
	"INCOME": 380,
	"EDUCATION": 297,
	"place_name": "Sedgemoor"
},
{
	"LIFE_EXPECTANCY": 229,
	"WELLBEING": 60,
	"HOUSING_AFFORDABILITY": 87,
	"ENVIRONMENT": 221,
	"CULTURE": 116,
	"over_all_rank": 77,
	"SAFETY": 69,
	"INCOME": 201,
	"EDUCATION": 291,
	"place_name": "Staffordshire Moorlands"
},
{
	"LIFE_EXPECTANCY": 114,
	"WELLBEING": 87,
	"HOUSING_AFFORDABILITY": 161,
	"ENVIRONMENT": 151,
	"CULTURE": 116,
	"over_all_rank": 20,
	"SAFETY": 41,
	"INCOME": 163,
	"EDUCATION": 247,
	"place_name": "South Staffordshire"
},
{
	"LIFE_EXPECTANCY": 195,
	"WELLBEING": 19,
	"HOUSING_AFFORDABILITY": 153,
	"ENVIRONMENT": 281,
	"CULTURE": 116,
	"over_all_rank": 98,
	"SAFETY": 56,
	"INCOME": 278,
	"EDUCATION": 220,
	"place_name": "Lichfield"
},
{
	"LIFE_EXPECTANCY": 237,
	"WELLBEING": 292,
	"HOUSING_AFFORDABILITY": 55,
	"ENVIRONMENT": 158,
	"CULTURE": 116,
	"over_all_rank": 82,
	"SAFETY": 211,
	"INCOME": 97,
	"EDUCATION": 150,
	"place_name": "Newcastle-under-Lyme"
},
{
	"LIFE_EXPECTANCY": 172,
	"WELLBEING": 221,
	"HOUSING_AFFORDABILITY": 133,
	"ENVIRONMENT": 111,
	"CULTURE": 116,
	"over_all_rank": 9,
	"SAFETY": 92,
	"INCOME": 110,
	"EDUCATION": 70,
	"place_name": "Stafford"
},
{
	"LIFE_EXPECTANCY": 276,
	"WELLBEING": 54,
	"HOUSING_AFFORDABILITY": 113,
	"ENVIRONMENT": 271,
	"CULTURE": 116,
	"over_all_rank": 252,
	"SAFETY": 213,
	"INCOME": 357,
	"EDUCATION": 287,
	"place_name": "East Staffordshire"
},
{
	"LIFE_EXPECTANCY": 259,
	"WELLBEING": 225,
	"HOUSING_AFFORDABILITY": 79,
	"ENVIRONMENT": 212,
	"CULTURE": 116,
	"over_all_rank": 230,
	"SAFETY": 177,
	"INCOME": 291,
	"EDUCATION": 338,
	"place_name": "Cannock Chase"
},
{
	"LIFE_EXPECTANCY": 247,
	"WELLBEING": 36,
	"HOUSING_AFFORDABILITY": 141,
	"ENVIRONMENT": 230,
	"CULTURE": 116,
	"over_all_rank": 231,
	"SAFETY": 251,
	"INCOME": 307,
	"EDUCATION": 334,
	"place_name": "Tamworth"
},
{
	"LIFE_EXPECTANCY": 195,
	"WELLBEING": 102,
	"HOUSING_AFFORDABILITY": 165,
	"ENVIRONMENT": 316,
	"CULTURE": 186,
	"over_all_rank": 283,
	"SAFETY": 197,
	"INCOME": 114,
	"EDUCATION": 377,
	"place_name": "Waveney"
},
{
	"LIFE_EXPECTANCY": 75,
	"WELLBEING": 227,
	"HOUSING_AFFORDABILITY": 259,
	"ENVIRONMENT": 288,
	"CULTURE": 186,
	"over_all_rank": 173,
	"SAFETY": 171,
	"INCOME": 147,
	"EDUCATION": 279,
	"place_name": "Babergh"
},
{
	"LIFE_EXPECTANCY": 50,
	"WELLBEING": 31,
	"HOUSING_AFFORDABILITY": 215,
	"ENVIRONMENT": 176,
	"CULTURE": 186,
	"over_all_rank": 80,
	"SAFETY": 32,
	"INCOME": 343,
	"EDUCATION": 149,
	"place_name": "Suffolk Coastal"
},
{
	"LIFE_EXPECTANCY": 59,
	"WELLBEING": 276,
	"HOUSING_AFFORDABILITY": 271,
	"ENVIRONMENT": 245,
	"CULTURE": 186,
	"over_all_rank": 145,
	"SAFETY": 171,
	"INCOME": 132,
	"EDUCATION": 212,
	"place_name": "St Edmundsbury"
},
{
	"LIFE_EXPECTANCY": 183,
	"WELLBEING": 118,
	"HOUSING_AFFORDABILITY": 201,
	"ENVIRONMENT": 150,
	"CULTURE": 186,
	"over_all_rank": 268,
	"SAFETY": 171,
	"INCOME": 379,
	"EDUCATION": 240,
	"place_name": "Forest Heath"
},
{
	"LIFE_EXPECTANCY": 59,
	"WELLBEING": 38,
	"HOUSING_AFFORDABILITY": 235,
	"ENVIRONMENT": 326,
	"CULTURE": 186,
	"over_all_rank": 169,
	"SAFETY": 171,
	"INCOME": 258,
	"EDUCATION": 261,
	"place_name": "Mid Suffolk"
},
{
	"LIFE_EXPECTANCY": 195,
	"WELLBEING": 341,
	"HOUSING_AFFORDABILITY": 121,
	"ENVIRONMENT": 362,
	"CULTURE": 186,
	"over_all_rank": 357,
	"SAFETY": 338,
	"INCOME": 332,
	"EDUCATION": 312,
	"place_name": "Ipswich"
},
{
	"LIFE_EXPECTANCY": 40,
	"WELLBEING": 70,
	"HOUSING_AFFORDABILITY": 322,
	"ENVIRONMENT": 40,
	"CULTURE": 34,
	"over_all_rank": 11,
	"SAFETY": 22,
	"INCOME": 208,
	"EDUCATION": 60,
	"place_name": "Waverley"
},
{
	"LIFE_EXPECTANCY": 123,
	"WELLBEING": 149,
	"HOUSING_AFFORDABILITY": 335,
	"ENVIRONMENT": 88,
	"CULTURE": 34,
	"over_all_rank": 91,
	"SAFETY": 106,
	"INCOME": 255,
	"EDUCATION": 99,
	"place_name": "Tandridge"
},
{
	"LIFE_EXPECTANCY": 84,
	"WELLBEING": 302,
	"HOUSING_AFFORDABILITY": 325,
	"ENVIRONMENT": 98,
	"CULTURE": 34,
	"over_all_rank": 70,
	"SAFETY": 99,
	"INCOME": 85,
	"EDUCATION": 25,
	"place_name": "Woking"
},
{
	"LIFE_EXPECTANCY": 103,
	"WELLBEING": 330,
	"HOUSING_AFFORDABILITY": 315,
	"ENVIRONMENT": 99,
	"CULTURE": 34,
	"over_all_rank": 189,
	"SAFETY": 43,
	"INCOME": 324,
	"EDUCATION": 93,
	"place_name": "Surrey Heath"
},
{
	"LIFE_EXPECTANCY": 84,
	"WELLBEING": 362,
	"HOUSING_AFFORDABILITY": 346,
	"ENVIRONMENT": 179,
	"CULTURE": 34,
	"over_all_rank": 235,
	"SAFETY": 137,
	"INCOME": 111,
	"EDUCATION": 176,
	"place_name": "Runnymede"
},
{
	"LIFE_EXPECTANCY": 75,
	"WELLBEING": 52,
	"HOUSING_AFFORDABILITY": 343,
	"ENVIRONMENT": 58,
	"CULTURE": 34,
	"over_all_rank": 46,
	"SAFETY": 111,
	"INCOME": 181,
	"EDUCATION": 125,
	"place_name": "Guildford"
},
{
	"LIFE_EXPECTANCY": 114,
	"WELLBEING": 18,
	"HOUSING_AFFORDABILITY": 341,
	"ENVIRONMENT": 119,
	"CULTURE": 34,
	"over_all_rank": 51,
	"SAFETY": 108,
	"INCOME": 220,
	"EDUCATION": 40,
	"place_name": "Reigate and Banstead"
},
{
	"LIFE_EXPECTANCY": 50,
	"WELLBEING": 69,
	"HOUSING_AFFORDABILITY": 364,
	"ENVIRONMENT": 69,
	"CULTURE": 34,
	"over_all_rank": 59,
	"SAFETY": 50,
	"INCOME": 172,
	"EDUCATION": 50,
	"place_name": "Mole Valley"
},
{
	"LIFE_EXPECTANCY": 9,
	"WELLBEING": 270,
	"HOUSING_AFFORDABILITY": 361,
	"ENVIRONMENT": 172,
	"CULTURE": 34,
	"over_all_rank": 102,
	"SAFETY": 84,
	"INCOME": 78,
	"EDUCATION": 7,
	"place_name": "Elmbridge"
},
{
	"LIFE_EXPECTANCY": 130,
	"WELLBEING": 269,
	"HOUSING_AFFORDABILITY": 317,
	"ENVIRONMENT": 279,
	"CULTURE": 34,
	"over_all_rank": 185,
	"SAFETY": 184,
	"INCOME": 183,
	"EDUCATION": 154,
	"place_name": "Spelthorne"
},
{
	"LIFE_EXPECTANCY": 285,
	"WELLBEING": 20,
	"HOUSING_AFFORDABILITY": 119,
	"ENVIRONMENT": 164,
	"CULTURE": 116,
	"over_all_rank": 177,
	"SAFETY": 196,
	"INCOME": 308,
	"EDUCATION": 305,
	"place_name": "North Warwickshire"
},
{
	"LIFE_EXPECTANCY": 9,
	"WELLBEING": 132,
	"HOUSING_AFFORDABILITY": 355,
	"ENVIRONMENT": 173,
	"CULTURE": 34,
	"over_all_rank": 64,
	"SAFETY": 105,
	"INCOME": 130,
	"EDUCATION": 26,
	"place_name": "Epsom and Ewell"
},
{
	"LIFE_EXPECTANCY": 114,
	"WELLBEING": 90,
	"HOUSING_AFFORDABILITY": 158,
	"ENVIRONMENT": 154,
	"CULTURE": 116,
	"over_all_rank": 86,
	"SAFETY": 199,
	"INCOME": 322,
	"EDUCATION": 152,
	"place_name": "Rugby"
},
{
	"LIFE_EXPECTANCY": 75,
	"WELLBEING": 198,
	"HOUSING_AFFORDABILITY": 260,
	"ENVIRONMENT": 202,
	"CULTURE": 116,
	"over_all_rank": 103,
	"SAFETY": 206,
	"INCOME": 263,
	"EDUCATION": 79,
	"place_name": "Warwick"
},
{
	"LIFE_EXPECTANCY": 59,
	"WELLBEING": 89,
	"HOUSING_AFFORDABILITY": 275,
	"ENVIRONMENT": 123,
	"CULTURE": 116,
	"over_all_rank": 25,
	"SAFETY": 206,
	"INCOME": 137,
	"EDUCATION": 51,
	"place_name": "Stratford-on-Avon"
},
{
	"LIFE_EXPECTANCY": 293,
	"WELLBEING": 163,
	"HOUSING_AFFORDABILITY": 103,
	"ENVIRONMENT": 253,
	"CULTURE": 116,
	"over_all_rank": 275,
	"SAFETY": 265,
	"INCOME": 253,
	"EDUCATION": 357,
	"place_name": "Nuneaton and Bedworth"
},
{
	"LIFE_EXPECTANCY": 130,
	"WELLBEING": 202,
	"HOUSING_AFFORDABILITY": 308,
	"ENVIRONMENT": 78,
	"CULTURE": 34,
	"over_all_rank": 270,
	"SAFETY": 123,
	"INCOME": 372,
	"EDUCATION": 300,
	"place_name": "Arun"
},
{
	"LIFE_EXPECTANCY": 159,
	"WELLBEING": 216,
	"HOUSING_AFFORDABILITY": 337,
	"ENVIRONMENT": 305,
	"CULTURE": 34,
	"over_all_rank": 303,
	"SAFETY": 75,
	"INCOME": 318,
	"EDUCATION": 336,
	"place_name": "Adur"
},
{
	"LIFE_EXPECTANCY": 50,
	"WELLBEING": 194,
	"HOUSING_AFFORDABILITY": 332,
	"ENVIRONMENT": 95,
	"CULTURE": 34,
	"over_all_rank": 50,
	"SAFETY": 63,
	"INCOME": 158,
	"EDUCATION": 122,
	"place_name": "Chichester"
},
{
	"LIFE_EXPECTANCY": 66,
	"WELLBEING": 30,
	"HOUSING_AFFORDABILITY": 326,
	"ENVIRONMENT": 56,
	"CULTURE": 34,
	"over_all_rank": 75,
	"SAFETY": 28,
	"INCOME": 337,
	"EDUCATION": 52,
	"place_name": "Horsham"
},
{
	"LIFE_EXPECTANCY": 172,
	"WELLBEING": 12,
	"HOUSING_AFFORDABILITY": 275,
	"ENVIRONMENT": 60,
	"CULTURE": 116,
	"over_all_rank": 16,
	"SAFETY": 206,
	"INCOME": 108,
	"EDUCATION": 44,
	"place_name": "Malvern Hills"
},
{
	"LIFE_EXPECTANCY": 32,
	"WELLBEING": 39,
	"HOUSING_AFFORDABILITY": 319,
	"ENVIRONMENT": 53,
	"CULTURE": 34,
	"over_all_rank": 7,
	"SAFETY": 27,
	"INCOME": 180,
	"EDUCATION": 72,
	"place_name": "Mid Sussex"
},
{
	"LIFE_EXPECTANCY": 195,
	"WELLBEING": 363,
	"HOUSING_AFFORDABILITY": 276,
	"ENVIRONMENT": 254,
	"CULTURE": 34,
	"over_all_rank": 241,
	"SAFETY": 187,
	"INCOME": 133,
	"EDUCATION": 146,
	"place_name": "Worthing"
},
{
	"LIFE_EXPECTANCY": 237,
	"WELLBEING": 318,
	"HOUSING_AFFORDABILITY": 131,
	"ENVIRONMENT": 92,
	"CULTURE": 116,
	"over_all_rank": 180,
	"SAFETY": 206,
	"INCOME": 288,
	"EDUCATION": 198,
	"place_name": "Wyre Forest"
},
{
	"LIFE_EXPECTANCY": 59,
	"WELLBEING": 9,
	"HOUSING_AFFORDABILITY": 254,
	"ENVIRONMENT": 205,
	"CULTURE": 116,
	"over_all_rank": 44,
	"SAFETY": 206,
	"INCOME": 173,
	"EDUCATION": 161,
	"place_name": "Wychavon"
},
{
	"LIFE_EXPECTANCY": 103,
	"WELLBEING": 117,
	"HOUSING_AFFORDABILITY": 265,
	"ENVIRONMENT": 131,
	"CULTURE": 34,
	"over_all_rank": 137,
	"SAFETY": 328,
	"INCOME": 146,
	"EDUCATION": 241,
	"place_name": "Crawley"
},
{
	"LIFE_EXPECTANCY": 140,
	"WELLBEING": 213,
	"HOUSING_AFFORDABILITY": 212,
	"ENVIRONMENT": 133,
	"CULTURE": 116,
	"over_all_rank": 58,
	"SAFETY": 206,
	"INCOME": 171,
	"EDUCATION": 114,
	"place_name": "Bromsgrove"
},
{
	"LIFE_EXPECTANCY": 172,
	"WELLBEING": 335,
	"HOUSING_AFFORDABILITY": 167,
	"ENVIRONMENT": 169,
	"CULTURE": 116,
	"over_all_rank": 114,
	"SAFETY": 206,
	"INCOME": 93,
	"EDUCATION": 105,
	"place_name": "Worcester"
},
{
	"LIFE_EXPECTANCY": 183,
	"WELLBEING": 265,
	"HOUSING_AFFORDABILITY": 198,
	"ENVIRONMENT": 97,
	"CULTURE": 116,
	"over_all_rank": 228,
	"SAFETY": 206,
	"INCOME": 281,
	"EDUCATION": 342,
	"place_name": "Redditch"
},
{
	"LIFE_EXPECTANCY": 172,
	"WELLBEING": 343,
	"HOUSING_AFFORDABILITY": 312,
	"ENVIRONMENT": 270,
	"CULTURE": 84,
	"over_all_rank": 225,
	"SAFETY": 271,
	"INCOME": 17,
	"EDUCATION": 63,
	"place_name": "Croydon"
},
{
	"LIFE_EXPECTANCY": 66,
	"WELLBEING": 181,
	"HOUSING_AFFORDABILITY": 347,
	"ENVIRONMENT": 268,
	"CULTURE": 84,
	"over_all_rank": 134,
	"SAFETY": 138,
	"INCOME": 195,
	"EDUCATION": 18,
	"place_name": "Kingston upon Thames"
},
{
	"LIFE_EXPECTANCY": 22,
	"WELLBEING": 238,
	"HOUSING_AFFORDABILITY": 328,
	"ENVIRONMENT": 226,
	"CULTURE": 84,
	"over_all_rank": 90,
	"SAFETY": 189,
	"INCOME": 59,
	"EDUCATION": 47,
	"place_name": "Bromley"
},
{
	"LIFE_EXPECTANCY": 32,
	"WELLBEING": 262,
	"HOUSING_AFFORDABILITY": 373,
	"ENVIRONMENT": 365,
	"CULTURE": 84,
	"over_all_rank": 310,
	"SAFETY": 293,
	"INCOME": 24,
	"EDUCATION": 96,
	"place_name": "Brent"
},
{
	"LIFE_EXPECTANCY": 103,
	"WELLBEING": 297,
	"HOUSING_AFFORDABILITY": 354,
	"ENVIRONMENT": 350,
	"CULTURE": 84,
	"over_all_rank": 286,
	"SAFETY": 292,
	"INCOME": 88,
	"EDUCATION": 59,
	"place_name": "Hounslow"
},
{
	"LIFE_EXPECTANCY": 103,
	"WELLBEING": 135,
	"HOUSING_AFFORDABILITY": 298,
	"ENVIRONMENT": 264,
	"CULTURE": 84,
	"over_all_rank": 184,
	"SAFETY": 230,
	"INCOME": 54,
	"EDUCATION": 328,
	"place_name": "Havering"
},
{
	"LIFE_EXPECTANCY": 140,
	"WELLBEING": 333,
	"HOUSING_AFFORDABILITY": 342,
	"ENVIRONMENT": 341,
	"CULTURE": 84,
	"over_all_rank": 274,
	"SAFETY": 254,
	"INCOME": 5,
	"EDUCATION": 113,
	"place_name": "Hillingdon"
},
{
	"LIFE_EXPECTANCY": 114,
	"WELLBEING": 280,
	"HOUSING_AFFORDABILITY": 368,
	"ENVIRONMENT": 354,
	"CULTURE": 84,
	"over_all_rank": 290,
	"SAFETY": 277,
	"INCOME": 21,
	"EDUCATION": 23,
	"place_name": "Ealing"
},
{
	"LIFE_EXPECTANCY": 5,
	"WELLBEING": 200,
	"HOUSING_AFFORDABILITY": 357,
	"ENVIRONMENT": 315,
	"CULTURE": 84,
	"over_all_rank": 221,
	"SAFETY": 110,
	"INCOME": 294,
	"EDUCATION": 57,
	"place_name": "Harrow"
},
{
	"LIFE_EXPECTANCY": 26,
	"WELLBEING": 152,
	"HOUSING_AFFORDABILITY": 363,
	"ENVIRONMENT": 325,
	"CULTURE": 84,
	"over_all_rank": 188,
	"SAFETY": 219,
	"INCOME": 69,
	"EDUCATION": 28,
	"place_name": "Barnet"
},
{
	"LIFE_EXPECTANCY": 140,
	"WELLBEING": 344,
	"HOUSING_AFFORDABILITY": 369,
	"ENVIRONMENT": 371,
	"CULTURE": 84,
	"over_all_rank": 348,
	"SAFETY": 346,
	"INCOME": 23,
	"EDUCATION": 14,
	"place_name": "Southwark"
},
{
	"LIFE_EXPECTANCY": 212,
	"WELLBEING": 372,
	"HOUSING_AFFORDABILITY": 371,
	"ENVIRONMENT": 377,
	"CULTURE": 84,
	"over_all_rank": 369,
	"SAFETY": 353,
	"INCOME": 35,
	"EDUCATION": 5,
	"place_name": "Lambeth"
},
{
	"LIFE_EXPECTANCY": 205,
	"WELLBEING": 360,
	"HOUSING_AFFORDABILITY": 338,
	"ENVIRONMENT": 356,
	"CULTURE": 84,
	"over_all_rank": 316,
	"SAFETY": 283,
	"INCOME": 8,
	"EDUCATION": 39,
	"place_name": "Lewisham"
},
{
	"LIFE_EXPECTANCY": 247,
	"WELLBEING": 378,
	"HOUSING_AFFORDABILITY": 344,
	"ENVIRONMENT": 347,
	"CULTURE": 84,
	"over_all_rank": 349,
	"SAFETY": 295,
	"INCOME": 112,
	"EDUCATION": 82,
	"place_name": "Greenwich"
},
{
	"LIFE_EXPECTANCY": 103,
	"WELLBEING": 328,
	"HOUSING_AFFORDABILITY": 282,
	"ENVIRONMENT": 300,
	"CULTURE": 84,
	"over_all_rank": 183,
	"SAFETY": 112,
	"INCOME": 95,
	"EDUCATION": 185,
	"place_name": "Bexley"
},
{
	"LIFE_EXPECTANCY": 93,
	"WELLBEING": 334,
	"HOUSING_AFFORDABILITY": 345,
	"ENVIRONMENT": 323,
	"CULTURE": 84,
	"over_all_rank": 253,
	"SAFETY": 233,
	"INCOME": 12,
	"EDUCATION": 153,
	"place_name": "Enfield"
},
{
	"LIFE_EXPECTANCY": 140,
	"WELLBEING": 239,
	"HOUSING_AFFORDABILITY": 356,
	"ENVIRONMENT": 351,
	"CULTURE": 84,
	"over_all_rank": 279,
	"SAFETY": 267,
	"INCOME": 126,
	"EDUCATION": 115,
	"place_name": "Waltham Forest"
},
{
	"LIFE_EXPECTANCY": 93,
	"WELLBEING": 95,
	"HOUSING_AFFORDABILITY": 335,
	"ENVIRONMENT": 335,
	"CULTURE": 84,
	"over_all_rank": 190,
	"SAFETY": 221,
	"INCOME": 206,
	"EDUCATION": 58,
	"place_name": "Redbridge"
},
{
	"LIFE_EXPECTANCY": 159,
	"WELLBEING": 354,
	"HOUSING_AFFORDABILITY": 322,
	"ENVIRONMENT": 262,
	"CULTURE": 84,
	"over_all_rank": 220,
	"SAFETY": 109,
	"INCOME": 134,
	"EDUCATION": 77,
	"place_name": "Sutton"
},
{
	"LIFE_EXPECTANCY": 12,
	"WELLBEING": 145,
	"HOUSING_AFFORDABILITY": 366,
	"ENVIRONMENT": 313,
	"CULTURE": 84,
	"over_all_rank": 153,
	"SAFETY": 136,
	"INCOME": 61,
	"EDUCATION": 2,
	"place_name": "Richmond upon Thames"
},
{
	"LIFE_EXPECTANCY": 93,
	"WELLBEING": 303,
	"HOUSING_AFFORDABILITY": 359,
	"ENVIRONMENT": 332,
	"CULTURE": 84,
	"over_all_rank": 240,
	"SAFETY": 194,
	"INCOME": 55,
	"EDUCATION": 10,
	"place_name": "Merton"
},
{
	"LIFE_EXPECTANCY": 149,
	"WELLBEING": 324,
	"HOUSING_AFFORDABILITY": 372,
	"ENVIRONMENT": 353,
	"CULTURE": 84,
	"over_all_rank": 309,
	"SAFETY": 261,
	"INCOME": 14,
	"EDUCATION": 3,
	"place_name": "Wandsworth"
},
{
	"LIFE_EXPECTANCY": 123,
	"WELLBEING": 329,
	"HOUSING_AFFORDABILITY": 378,
	"ENVIRONMENT": 373,
	"CULTURE": 84,
	"over_all_rank": 362,
	"SAFETY": 362,
	"INCOME": 62,
	"EDUCATION": 6,
	"place_name": "Hammersmith and Fulham"
},
{
	"LIFE_EXPECTANCY": 2,
	"WELLBEING": 248,
	"HOUSING_AFFORDABILITY": 380,
	"ENVIRONMENT": 370,
	"CULTURE": 84,
	"over_all_rank": 359,
	"SAFETY": 373,
	"INCOME": 39,
	"EDUCATION": 8,
	"place_name": "Kensington and Chelsea"
},
{
	"LIFE_EXPECTANCY": 4,
	"WELLBEING": 331,
	"HOUSING_AFFORDABILITY": 379,
	"ENVIRONMENT": 376,
	"CULTURE": 84,
	"over_all_rank": 373,
	"SAFETY": 379,
	"INCOME": 103,
	"EDUCATION": 9,
	"place_name": "Westminster"
},
{
	"LIFE_EXPECTANCY": 3,
	"WELLBEING": 367,
	"HOUSING_AFFORDABILITY": 377,
	"ENVIRONMENT": 374,
	"CULTURE": 84,
	"over_all_rank": 371,
	"SAFETY": 370,
	"INCOME": 67,
	"EDUCATION": 16,
	"place_name": "Camden"
},
{
	"LIFE_EXPECTANCY": 205,
	"WELLBEING": 379,
	"HOUSING_AFFORDABILITY": 375,
	"ENVIRONMENT": 379,
	"CULTURE": 84,
	"over_all_rank": 380,
	"SAFETY": 369,
	"INCOME": 105,
	"EDUCATION": 20,
	"place_name": "Islington"
},
{
	"LIFE_EXPECTANCY": 229,
	"WELLBEING": 371,
	"HOUSING_AFFORDABILITY": 376,
	"ENVIRONMENT": 369,
	"CULTURE": 84,
	"over_all_rank": 367,
	"SAFETY": 352,
	"INCOME": 3,
	"EDUCATION": 41,
	"place_name": "Hackney"
},
{
	"LIFE_EXPECTANCY": 268,
	"WELLBEING": 271,
	"HOUSING_AFFORDABILITY": 352,
	"ENVIRONMENT": 372,
	"CULTURE": 84,
	"over_all_rank": 351,
	"SAFETY": 345,
	"INCOME": 251,
	"EDUCATION": 35,
	"place_name": "Tower Hamlets"
},
{
	"LIFE_EXPECTANCY": 66,
	"WELLBEING": 370,
	"HOUSING_AFFORDABILITY": 374,
	"ENVIRONMENT": 355,
	"CULTURE": 84,
	"over_all_rank": 354,
	"SAFETY": 343,
	"INCOME": 20,
	"EDUCATION": 42,
	"place_name": "Haringey"
},
{
	"LIFE_EXPECTANCY": 259,
	"WELLBEING": 84,
	"HOUSING_AFFORDABILITY": 349,
	"ENVIRONMENT": 360,
	"CULTURE": 84,
	"over_all_rank": 304,
	"SAFETY": 320,
	"INCOME": 162,
	"EDUCATION": 91,
	"place_name": "Newham"
},
{
	"LIFE_EXPECTANCY": 311,
	"WELLBEING": 261,
	"HOUSING_AFFORDABILITY": 302,
	"ENVIRONMENT": 345,
	"CULTURE": 84,
	"over_all_rank": 322,
	"SAFETY": 309,
	"INCOME": 90,
	"EDUCATION": 295,
	"place_name": "Barking and Dagenham"
},
{
	"LIFE_EXPECTANCY": 119,
	"WELLBEING": 345,
	"HOUSING_AFFORDABILITY": 370,
	"ENVIRONMENT": 380,
	"CULTURE": 84,
	"over_all_rank": 374,
	"SAFETY": 380,
	"INCOME": 43,
	"EDUCATION": 1,
	"place_name": "City of London"
},
{
	"LIFE_EXPECTANCY": 322,
	"WELLBEING": 268,
	"HOUSING_AFFORDABILITY": 26,
	"ENVIRONMENT": 215,
	"CULTURE": 220,
	"over_all_rank": 291,
	"SAFETY": 248,
	"INCOME": 302,
	"EDUCATION": 330,
	"place_name": "Barnsley"
},
{
	"LIFE_EXPECTANCY": 304,
	"WELLBEING": 307,
	"HOUSING_AFFORDABILITY": 92,
	"ENVIRONMENT": 318,
	"CULTURE": 116,
	"over_all_rank": 262,
	"SAFETY": 262,
	"INCOME": 135,
	"EDUCATION": 282,
	"place_name": "Birmingham"
},
{
	"LIFE_EXPECTANCY": 322,
	"WELLBEING": 274,
	"HOUSING_AFFORDABILITY": 40,
	"ENVIRONMENT": 317,
	"CULTURE": 287,
	"over_all_rank": 267,
	"SAFETY": 294,
	"INCOME": 136,
	"EDUCATION": 218,
	"place_name": "Bolton"
},
{
	"LIFE_EXPECTANCY": 338,
	"WELLBEING": 264,
	"HOUSING_AFFORDABILITY": 58,
	"ENVIRONMENT": 260,
	"CULTURE": 220,
	"over_all_rank": 338,
	"SAFETY": 350,
	"INCOME": 249,
	"EDUCATION": 359,
	"place_name": "Bradford"
},
{
	"LIFE_EXPECTANCY": 322,
	"WELLBEING": 305,
	"HOUSING_AFFORDABILITY": 62,
	"ENVIRONMENT": 244,
	"CULTURE": 287,
	"over_all_rank": 217,
	"SAFETY": 258,
	"INCOME": 26,
	"EDUCATION": 166,
	"place_name": "Bury"
},
{
	"LIFE_EXPECTANCY": 293,
	"WELLBEING": 236,
	"HOUSING_AFFORDABILITY": 30,
	"ENVIRONMENT": 197,
	"CULTURE": 220,
	"over_all_rank": 195,
	"SAFETY": 331,
	"INCOME": 31,
	"EDUCATION": 238,
	"place_name": "Calderdale"
},
{
	"LIFE_EXPECTANCY": 333,
	"WELLBEING": 373,
	"HOUSING_AFFORDABILITY": 90,
	"ENVIRONMENT": 346,
	"CULTURE": 116,
	"over_all_rank": 372,
	"SAFETY": 247,
	"INCOME": 328,
	"EDUCATION": 367,
	"place_name": "Wolverhampton"
},
{
	"LIFE_EXPECTANCY": 276,
	"WELLBEING": 243,
	"HOUSING_AFFORDABILITY": 74,
	"ENVIRONMENT": 252,
	"CULTURE": 116,
	"over_all_rank": 166,
	"SAFETY": 195,
	"INCOME": 203,
	"EDUCATION": 244,
	"place_name": "Coventry"
},
{
	"LIFE_EXPECTANCY": 322,
	"WELLBEING": 77,
	"HOUSING_AFFORDABILITY": 44,
	"ENVIRONMENT": 231,
	"CULTURE": 220,
	"over_all_rank": 282,
	"SAFETY": 325,
	"INCOME": 246,
	"EDUCATION": 341,
	"place_name": "Doncaster"
},
{
	"LIFE_EXPECTANCY": 220,
	"WELLBEING": 285,
	"HOUSING_AFFORDABILITY": 80,
	"ENVIRONMENT": 295,
	"CULTURE": 116,
	"over_all_rank": 238,
	"SAFETY": 128,
	"INCOME": 140,
	"EDUCATION": 355,
	"place_name": "Dudley"
},
{
	"LIFE_EXPECTANCY": 268,
	"WELLBEING": 217,
	"HOUSING_AFFORDABILITY": 70,
	"ENVIRONMENT": 223,
	"CULTURE": 220,
	"over_all_rank": 219,
	"SAFETY": 287,
	"INCOME": 174,
	"EDUCATION": 309,
	"place_name": "Kirklees"
},
{
	"LIFE_EXPECTANCY": 333,
	"WELLBEING": 250,
	"HOUSING_AFFORDABILITY": 49,
	"ENVIRONMENT": 86,
	"CULTURE": 353,
	"over_all_rank": 248,
	"SAFETY": 282,
	"INCOME": 176,
	"EDUCATION": 256,
	"place_name": "Gateshead"
},
{
	"LIFE_EXPECTANCY": 293,
	"WELLBEING": 255,
	"HOUSING_AFFORDABILITY": 90,
	"ENVIRONMENT": 259,
	"CULTURE": 220,
	"over_all_rank": 257,
	"SAFETY": 357,
	"INCOME": 152,
	"EDUCATION": 193,
	"place_name": "Leeds"
},
{
	"LIFE_EXPECTANCY": 368,
	"WELLBEING": 337,
	"HOUSING_AFFORDABILITY": 23,
	"ENVIRONMENT": 297,
	"CULTURE": 287,
	"over_all_rank": 341,
	"SAFETY": 191,
	"INCOME": 138,
	"EDUCATION": 358,
	"place_name": "Knowsley"
},
{
	"LIFE_EXPECTANCY": 368,
	"WELLBEING": 364,
	"HOUSING_AFFORDABILITY": 25,
	"ENVIRONMENT": 322,
	"CULTURE": 287,
	"over_all_rank": 353,
	"SAFETY": 337,
	"INCOME": 109,
	"EDUCATION": 233,
	"place_name": "Liverpool"
},
{
	"LIFE_EXPECTANCY": 375,
	"WELLBEING": 368,
	"HOUSING_AFFORDABILITY": 116,
	"ENVIRONMENT": 302,
	"CULTURE": 287,
	"over_all_rank": 365,
	"SAFETY": 371,
	"INCOME": 87,
	"EDUCATION": 134,
	"place_name": "Manchester"
},
{
	"LIFE_EXPECTANCY": 328,
	"WELLBEING": 358,
	"HOUSING_AFFORDABILITY": 97,
	"ENVIRONMENT": 125,
	"CULTURE": 353,
	"over_all_rank": 334,
	"SAFETY": 356,
	"INCOME": 269,
	"EDUCATION": 133,
	"place_name": "Newcastle upon Tyne"
},
{
	"LIFE_EXPECTANCY": 360,
	"WELLBEING": 350,
	"HOUSING_AFFORDABILITY": 41,
	"ENVIRONMENT": 310,
	"CULTURE": 287,
	"over_all_rank": 363,
	"SAFETY": 319,
	"INCOME": 285,
	"EDUCATION": 346,
	"place_name": "Oldham"
},
{
	"LIFE_EXPECTANCY": 268,
	"WELLBEING": 319,
	"HOUSING_AFFORDABILITY": 96,
	"ENVIRONMENT": 159,
	"CULTURE": 353,
	"over_all_rank": 222,
	"SAFETY": 250,
	"INCOME": 50,
	"EDUCATION": 221,
	"place_name": "North Tyneside"
},
{
	"LIFE_EXPECTANCY": 360,
	"WELLBEING": 301,
	"HOUSING_AFFORDABILITY": 42,
	"ENVIRONMENT": 235,
	"CULTURE": 287,
	"over_all_rank": 333,
	"SAFETY": 340,
	"INCOME": 123,
	"EDUCATION": 344,
	"place_name": "Rochdale"
},
{
	"LIFE_EXPECTANCY": 338,
	"WELLBEING": 327,
	"HOUSING_AFFORDABILITY": 68,
	"ENVIRONMENT": 284,
	"CULTURE": 220,
	"over_all_rank": 352,
	"SAFETY": 260,
	"INCOME": 355,
	"EDUCATION": 347,
	"place_name": "Rotherham"
},
{
	"LIFE_EXPECTANCY": 356,
	"WELLBEING": 332,
	"HOUSING_AFFORDABILITY": 61,
	"ENVIRONMENT": 337,
	"CULTURE": 287,
	"over_all_rank": 324,
	"SAFETY": 264,
	"INCOME": 101,
	"EDUCATION": 269,
	"place_name": "Salford"
},
{
	"LIFE_EXPECTANCY": 338,
	"WELLBEING": 312,
	"HOUSING_AFFORDABILITY": 70,
	"ENVIRONMENT": 368,
	"CULTURE": 116,
	"over_all_rank": 361,
	"SAFETY": 228,
	"INCOME": 156,
	"EDUCATION": 379,
	"place_name": "Sandwell"
},
{
	"LIFE_EXPECTANCY": 285,
	"WELLBEING": 284,
	"HOUSING_AFFORDABILITY": 123,
	"ENVIRONMENT": 249,
	"CULTURE": 287,
	"over_all_rank": 205,
	"SAFETY": 181,
	"INCOME": 107,
	"EDUCATION": 245,
	"place_name": "Sefton"
},
{
	"LIFE_EXPECTANCY": 259,
	"WELLBEING": 315,
	"HOUSING_AFFORDABILITY": 64,
	"ENVIRONMENT": 309,
	"CULTURE": 220,
	"over_all_rank": 209,
	"SAFETY": 263,
	"INCOME": 80,
	"EDUCATION": 145,
	"place_name": "Sheffield"
},
{
	"LIFE_EXPECTANCY": 93,
	"WELLBEING": 134,
	"HOUSING_AFFORDABILITY": 196,
	"ENVIRONMENT": 222,
	"CULTURE": 116,
	"over_all_rank": 56,
	"SAFETY": 178,
	"INCOME": 167,
	"EDUCATION": 195,
	"place_name": "Solihull"
},
{
	"LIFE_EXPECTANCY": 328,
	"WELLBEING": 295,
	"HOUSING_AFFORDABILITY": 76,
	"ENVIRONMENT": 188,
	"CULTURE": 353,
	"over_all_rank": 312,
	"SAFETY": 281,
	"INCOME": 223,
	"EDUCATION": 323,
	"place_name": "South Tyneside"
},
{
	"LIFE_EXPECTANCY": 212,
	"WELLBEING": 277,
	"HOUSING_AFFORDABILITY": 171,
	"ENVIRONMENT": 258,
	"CULTURE": 287,
	"over_all_rank": 154,
	"SAFETY": 226,
	"INCOME": 52,
	"EDUCATION": 140,
	"place_name": "Stockport"
},
{
	"LIFE_EXPECTANCY": 351,
	"WELLBEING": 263,
	"HOUSING_AFFORDABILITY": 24,
	"ENVIRONMENT": 220,
	"CULTURE": 353,
	"over_all_rank": 323,
	"SAFETY": 297,
	"INCOME": 230,
	"EDUCATION": 327,
	"place_name": "Sunderland"
},
{
	"LIFE_EXPECTANCY": 343,
	"WELLBEING": 316,
	"HOUSING_AFFORDABILITY": 28,
	"ENVIRONMENT": 290,
	"CULTURE": 287,
	"over_all_rank": 318,
	"SAFETY": 243,
	"INCOME": 194,
	"EDUCATION": 335,
	"place_name": "St. Helens"
},
{
	"LIFE_EXPECTANCY": 360,
	"WELLBEING": 288,
	"HOUSING_AFFORDABILITY": 67,
	"ENVIRONMENT": 261,
	"CULTURE": 287,
	"over_all_rank": 326,
	"SAFETY": 291,
	"INCOME": 229,
	"EDUCATION": 325,
	"place_name": "Tameside"
},
{
	"LIFE_EXPECTANCY": 159,
	"WELLBEING": 106,
	"HOUSING_AFFORDABILITY": 169,
	"ENVIRONMENT": 307,
	"CULTURE": 287,
	"over_all_rank": 78,
	"SAFETY": 133,
	"INCOME": 149,
	"EDUCATION": 32,
	"place_name": "Trafford"
},
{
	"LIFE_EXPECTANCY": 298,
	"WELLBEING": 188,
	"HOUSING_AFFORDABILITY": 81,
	"ENVIRONMENT": 243,
	"CULTURE": 220,
	"over_all_rank": 295,
	"SAFETY": 326,
	"INCOME": 226,
	"EDUCATION": 348,
	"place_name": "Wakefield"
},
{
	"LIFE_EXPECTANCY": 276,
	"WELLBEING": 237,
	"HOUSING_AFFORDABILITY": 88,
	"ENVIRONMENT": 340,
	"CULTURE": 116,
	"over_all_rank": 292,
	"SAFETY": 216,
	"INCOME": 198,
	"EDUCATION": 354,
	"place_name": "Walsall"
},
{
	"LIFE_EXPECTANCY": 343,
	"WELLBEING": 85,
	"HOUSING_AFFORDABILITY": 20,
	"ENVIRONMENT": 269,
	"CULTURE": 287,
	"over_all_rank": 260,
	"SAFETY": 244,
	"INCOME": 214,
	"EDUCATION": 332,
	"place_name": "Wigan"
},
{
	"LIFE_EXPECTANCY": 304,
	"WELLBEING": 260,
	"HOUSING_AFFORDABILITY": 59,
	"ENVIRONMENT": 180,
	"CULTURE": 287,
	"over_all_rank": 203,
	"SAFETY": 175,
	"INCOME": 265,
	"EDUCATION": 206,
	"place_name": "Wirral"
},
{
	"LIFE_EXPECTANCY": 259,
	"WELLBEING": 196,
	"HOUSING_AFFORDABILITY": 64,
	"ENVIRONMENT": 195,
	"CULTURE": 370,
	"over_all_rank": 213,
	"SAFETY": 236,
	"INCOME": 168,
	"EDUCATION": 190,
	"place_name": "Swansea"
},
{
	"LIFE_EXPECTANCY": 304,
	"WELLBEING": 219,
	"HOUSING_AFFORDABILITY": 189,
	"ENVIRONMENT": 8,
	"CULTURE": 147,
	"over_all_rank": 165,
	"SAFETY": 323,
	"INCOME": 187,
	"EDUCATION": 100,
	"place_name": "Angus"
},
{
	"LIFE_EXPECTANCY": 75,
	"WELLBEING": 208,
	"HOUSING_AFFORDABILITY": 296,
	"ENVIRONMENT": 106,
	"CULTURE": 249,
	"over_all_rank": 66,
	"SAFETY": 167,
	"INCOME": 151,
	"EDUCATION": 49,
	"place_name": "Bath and North East Somerset"
},
{
	"LIFE_EXPECTANCY": 159,
	"WELLBEING": 275,
	"HOUSING_AFFORDABILITY": 218,
	"ENVIRONMENT": 189,
	"CULTURE": 186,
	"over_all_rank": 97,
	"SAFETY": 222,
	"INCOME": 76,
	"EDUCATION": 107,
	"place_name": "Bedford"
},
{
	"LIFE_EXPECTANCY": 356,
	"WELLBEING": 249,
	"HOUSING_AFFORDABILITY": 19,
	"ENVIRONMENT": 163,
	"CULTURE": 287,
	"over_all_rank": 335,
	"SAFETY": 279,
	"INCOME": 359,
	"EDUCATION": 331,
	"place_name": "Blackburn with Darwen"
},
{
	"LIFE_EXPECTANCY": 378,
	"WELLBEING": 290,
	"HOUSING_AFFORDABILITY": 34,
	"ENVIRONMENT": 329,
	"CULTURE": 287,
	"over_all_rank": 379,
	"SAFETY": 372,
	"INCOME": 354,
	"EDUCATION": 333,
	"place_name": "Blackpool"
},
{
	"LIFE_EXPECTANCY": 364,
	"WELLBEING": 289,
	"HOUSING_AFFORDABILITY": 2,
	"ENVIRONMENT": 334,
	"CULTURE": 370,
	"over_all_rank": 370,
	"SAFETY": 234,
	"INCOME": 286,
	"EDUCATION": 373,
	"place_name": "Blaenau Gwent"
},
{
	"LIFE_EXPECTANCY": 212,
	"WELLBEING": 293,
	"HOUSING_AFFORDABILITY": 237,
	"ENVIRONMENT": 187,
	"CULTURE": 249,
	"over_all_rank": 266,
	"SAFETY": 307,
	"INCOME": 331,
	"EDUCATION": 116,
	"place_name": "Bournemouth"
},
{
	"LIFE_EXPECTANCY": 22,
	"WELLBEING": 184,
	"HOUSING_AFFORDABILITY": 318,
	"ENVIRONMENT": 64,
	"CULTURE": 34,
	"over_all_rank": 27,
	"SAFETY": 37,
	"INCOME": 143,
	"EDUCATION": 147,
	"place_name": "Bracknell Forest"
},
{
	"LIFE_EXPECTANCY": 195,
	"WELLBEING": 55,
	"HOUSING_AFFORDABILITY": 112,
	"ENVIRONMENT": 277,
	"CULTURE": 370,
	"over_all_rank": 121,
	"SAFETY": 186,
	"INCOME": 15,
	"EDUCATION": 67,
	"place_name": "Vale of Glamorgan"
},
{
	"LIFE_EXPECTANCY": 343,
	"WELLBEING": 320,
	"HOUSING_AFFORDABILITY": 36,
	"ENVIRONMENT": 165,
	"CULTURE": 370,
	"over_all_rank": 301,
	"SAFETY": 127,
	"INCOME": 170,
	"EDUCATION": 289,
	"place_name": "Caerphilly"
},
{
	"LIFE_EXPECTANCY": 276,
	"WELLBEING": 338,
	"HOUSING_AFFORDABILITY": 111,
	"ENVIRONMENT": 227,
	"CULTURE": 370,
	"over_all_rank": 331,
	"SAFETY": 324,
	"INCOME": 217,
	"EDUCATION": 274,
	"place_name": "Newport"
},
{
	"LIFE_EXPECTANCY": 347,
	"WELLBEING": 240,
	"HOUSING_AFFORDABILITY": 8,
	"ENVIRONMENT": 81,
	"CULTURE": 370,
	"over_all_rank": 265,
	"SAFETY": 174,
	"INCOME": 153,
	"EDUCATION": 307,
	"place_name": "Neath Port Talbot"
},
{
	"LIFE_EXPECTANCY": 140,
	"WELLBEING": 137,
	"HOUSING_AFFORDABILITY": 227,
	"ENVIRONMENT": 186,
	"CULTURE": 186,
	"over_all_rank": 72,
	"SAFETY": 83,
	"INCOME": 164,
	"EDUCATION": 249,
	"place_name": "Central Bedfordshire"
},
{
	"LIFE_EXPECTANCY": 140,
	"WELLBEING": 35,
	"HOUSING_AFFORDABILITY": 174,
	"ENVIRONMENT": 177,
	"CULTURE": 287,
	"over_all_rank": 26,
	"SAFETY": 85,
	"INCOME": 127,
	"EDUCATION": 159,
	"place_name": "Cheshire East"
},
{
	"LIFE_EXPECTANCY": 195,
	"WELLBEING": 210,
	"HOUSING_AFFORDABILITY": 136,
	"ENVIRONMENT": 251,
	"CULTURE": 287,
	"over_all_rank": 113,
	"SAFETY": 132,
	"INCOME": 175,
	"EDUCATION": 174,
	"place_name": "Cheshire West and Chester"
},
{
	"LIFE_EXPECTANCY": 237,
	"WELLBEING": 353,
	"HOUSING_AFFORDABILITY": 249,
	"ENVIRONMENT": 191,
	"CULTURE": 249,
	"over_all_rank": 294,
	"SAFETY": 364,
	"INCOME": 68,
	"EDUCATION": 45,
	"place_name": "Bristol"
},
{
	"LIFE_EXPECTANCY": 237,
	"WELLBEING": 310,
	"HOUSING_AFFORDABILITY": 40,
	"ENVIRONMENT": 301,
	"CULTURE": 327,
	"over_all_rank": 293,
	"SAFETY": 270,
	"INCOME": 298,
	"EDUCATION": 243,
	"place_name": "Derby"
},
{
	"LIFE_EXPECTANCY": 370,
	"WELLBEING": 342,
	"HOUSING_AFFORDABILITY": 13,
	"ENVIRONMENT": 375,
	"CULTURE": 220,
	"over_all_rank": 376,
	"SAFETY": 367,
	"INCOME": 304,
	"EDUCATION": 293,
	"place_name": "Kingston upon Hull"
},
{
	"LIFE_EXPECTANCY": 322,
	"WELLBEING": 347,
	"HOUSING_AFFORDABILITY": 127,
	"ENVIRONMENT": 331,
	"CULTURE": 327,
	"over_all_rank": 360,
	"SAFETY": 315,
	"INCOME": 210,
	"EDUCATION": 356,
	"place_name": "Leicester"
},
{
	"LIFE_EXPECTANCY": 333,
	"WELLBEING": 339,
	"HOUSING_AFFORDABILITY": 49,
	"ENVIRONMENT": 343,
	"CULTURE": 327,
	"over_all_rank": 355,
	"SAFETY": 334,
	"INCOME": 283,
	"EDUCATION": 278,
	"place_name": "Nottingham"
},
{
	"LIFE_EXPECTANCY": 268,
	"WELLBEING": 232,
	"HOUSING_AFFORDABILITY": 137,
	"ENVIRONMENT": 217,
	"CULTURE": 186,
	"over_all_rank": 317,
	"SAFETY": 336,
	"INCOME": 306,
	"EDUCATION": 351,
	"place_name": "Peterborough"
},
{
	"LIFE_EXPECTANCY": 220,
	"WELLBEING": 220,
	"HOUSING_AFFORDABILITY": 181,
	"ENVIRONMENT": 361,
	"CULTURE": 34,
	"over_all_rank": 329,
	"SAFETY": 365,
	"INCOME": 320,
	"EDUCATION": 162,
	"place_name": "Southampton"
},
{
	"LIFE_EXPECTANCY": 349,
	"WELLBEING": 321,
	"HOUSING_AFFORDABILITY": 19,
	"ENVIRONMENT": 149,
	"CULTURE": 116,
	"over_all_rank": 358,
	"SAFETY": 347,
	"INCOME": 316,
	"EDUCATION": 370,
	"place_name": "Stoke-on-Trent"
},
{
	"LIFE_EXPECTANCY": 372,
	"WELLBEING": 234,
	"HOUSING_AFFORDABILITY": 15,
	"ENVIRONMENT": 23,
	"CULTURE": 147,
	"over_all_rank": 350,
	"SAFETY": 359,
	"INCOME": 375,
	"EDUCATION": 213,
	"place_name": "Clackmannanshire"
},
{
	"LIFE_EXPECTANCY": 259,
	"WELLBEING": 146,
	"HOUSING_AFFORDABILITY": 106,
	"ENVIRONMENT": 39,
	"CULTURE": 370,
	"over_all_rank": 104,
	"SAFETY": 115,
	"INCOME": 64,
	"EDUCATION": 171,
	"place_name": "Conwy"
},
{
	"LIFE_EXPECTANCY": 343,
	"WELLBEING": 313,
	"HOUSING_AFFORDABILITY": 15,
	"ENVIRONMENT": 79,
	"CULTURE": 353,
	"over_all_rank": 271,
	"SAFETY": 201,
	"INCOME": 204,
	"EDUCATION": 286,
	"place_name": "County Durham"
},
{
	"LIFE_EXPECTANCY": 123,
	"WELLBEING": 126,
	"HOUSING_AFFORDABILITY": 224,
	"ENVIRONMENT": 61,
	"CULTURE": 116,
	"over_all_rank": 175,
	"SAFETY": 101,
	"INCOME": 363,
	"EDUCATION": 263,
	"place_name": "Herefordshire"
},
{
	"LIFE_EXPECTANCY": 304,
	"WELLBEING": 159,
	"HOUSING_AFFORDABILITY": 30,
	"ENVIRONMENT": 139,
	"CULTURE": 353,
	"over_all_rank": 239,
	"SAFETY": 312,
	"INCOME": 239,
	"EDUCATION": 227,
	"place_name": "Darlington"
},
{
	"LIFE_EXPECTANCY": 372,
	"WELLBEING": 355,
	"HOUSING_AFFORDABILITY": 57,
	"ENVIRONMENT": 30,
	"CULTURE": 147,
	"over_all_rank": 343,
	"SAFETY": 375,
	"INCOME": 219,
	"EDUCATION": 160,
	"place_name": "Dundee City"
},
{
	"LIFE_EXPECTANCY": 378,
	"WELLBEING": 193,
	"HOUSING_AFFORDABILITY": 7,
	"ENVIRONMENT": 26,
	"CULTURE": 147,
	"over_all_rank": 276,
	"SAFETY": 349,
	"INCOME": 65,
	"EDUCATION": 232,
	"place_name": "East Ayrshire"
},
{
	"LIFE_EXPECTANCY": 172,
	"WELLBEING": 183,
	"HOUSING_AFFORDABILITY": 188,
	"ENVIRONMENT": 24,
	"CULTURE": 147,
	"over_all_rank": 2,
	"SAFETY": 52,
	"INCOME": 4,
	"EDUCATION": 15,
	"place_name": "East Renfrewshire"
},
{
	"LIFE_EXPECTANCY": 183,
	"WELLBEING": 65,
	"HOUSING_AFFORDABILITY": 109,
	"ENVIRONMENT": 336,
	"CULTURE": 220,
	"over_all_rank": 88,
	"SAFETY": 49,
	"INCOME": 165,
	"EDUCATION": 167,
	"place_name": "East Riding of Yorkshire"
},
{
	"LIFE_EXPECTANCY": 351,
	"WELLBEING": 291,
	"HOUSING_AFFORDABILITY": 110,
	"ENVIRONMENT": 59,
	"CULTURE": 147,
	"over_all_rank": 280,
	"SAFETY": 355,
	"INCOME": 154,
	"EDUCATION": 223,
	"place_name": "Falkirk"
},
{
	"LIFE_EXPECTANCY": 379,
	"WELLBEING": 349,
	"HOUSING_AFFORDABILITY": 74,
	"ENVIRONMENT": 46,
	"CULTURE": 147,
	"over_all_rank": 347,
	"SAFETY": 378,
	"INCOME": 38,
	"EDUCATION": 143,
	"place_name": "Glasgow City"
},
{
	"LIFE_EXPECTANCY": 366,
	"WELLBEING": 246,
	"HOUSING_AFFORDABILITY": 46,
	"ENVIRONMENT": 338,
	"CULTURE": 287,
	"over_all_rank": 344,
	"SAFETY": 235,
	"INCOME": 330,
	"EDUCATION": 308,
	"place_name": "Halton"
},
{
	"LIFE_EXPECTANCY": 338,
	"WELLBEING": 308,
	"HOUSING_AFFORDABILITY": 17,
	"ENVIRONMENT": 304,
	"CULTURE": 353,
	"over_all_rank": 336,
	"SAFETY": 322,
	"INCOME": 72,
	"EDUCATION": 345,
	"place_name": "Hartlepool"
},
{
	"LIFE_EXPECTANCY": 368,
	"WELLBEING": 266,
	"HOUSING_AFFORDABILITY": 16,
	"ENVIRONMENT": 5,
	"CULTURE": 147,
	"over_all_rank": 237,
	"SAFETY": 339,
	"INCOME": 18,
	"EDUCATION": 194,
	"place_name": "Inverclyde"
},
{
	"LIFE_EXPECTANCY": 276,
	"WELLBEING": 197,
	"HOUSING_AFFORDABILITY": 223,
	"ENVIRONMENT": 209,
	"CULTURE": 186,
	"over_all_rank": 224,
	"SAFETY": 275,
	"INCOME": 196,
	"EDUCATION": 283,
	"place_name": "Luton"
},
{
	"LIFE_EXPECTANCY": 298,
	"WELLBEING": 309,
	"HOUSING_AFFORDABILITY": 180,
	"ENVIRONMENT": 273,
	"CULTURE": 34,
	"over_all_rank": 258,
	"SAFETY": 272,
	"INCOME": 178,
	"EDUCATION": 277,
	"place_name": "Medway"
},
{
	"LIFE_EXPECTANCY": 364,
	"WELLBEING": 374,
	"HOUSING_AFFORDABILITY": 4,
	"ENVIRONMENT": 84,
	"CULTURE": 370,
	"over_all_rank": 366,
	"SAFETY": 290,
	"INCOME": 193,
	"EDUCATION": 361,
	"place_name": "Merthyr Tydfil"
},
{
	"LIFE_EXPECTANCY": 375,
	"WELLBEING": 150,
	"HOUSING_AFFORDABILITY": 53,
	"ENVIRONMENT": 287,
	"CULTURE": 353,
	"over_all_rank": 346,
	"SAFETY": 366,
	"INCOME": 92,
	"EDUCATION": 290,
	"place_name": "Middlesbrough"
},
{
	"LIFE_EXPECTANCY": 328,
	"WELLBEING": 182,
	"HOUSING_AFFORDABILITY": 241,
	"ENVIRONMENT": 14,
	"CULTURE": 147,
	"over_all_rank": 140,
	"SAFETY": 280,
	"INCOME": 44,
	"EDUCATION": 144,
	"place_name": "Midlothian"
},
{
	"LIFE_EXPECTANCY": 220,
	"WELLBEING": 256,
	"HOUSING_AFFORDABILITY": 239,
	"ENVIRONMENT": 94,
	"CULTURE": 34,
	"over_all_rank": 174,
	"SAFETY": 245,
	"INCOME": 284,
	"EDUCATION": 199,
	"place_name": "Milton Keynes"
},
{
	"LIFE_EXPECTANCY": 285,
	"WELLBEING": 153,
	"HOUSING_AFFORDABILITY": 22,
	"ENVIRONMENT": 378,
	"CULTURE": 220,
	"over_all_rank": 368,
	"SAFETY": 341,
	"INCOME": 367,
	"EDUCATION": 353,
	"place_name": "North East Lincolnshire"
},
{
	"LIFE_EXPECTANCY": 376,
	"WELLBEING": 278,
	"HOUSING_AFFORDABILITY": 27,
	"ENVIRONMENT": 17,
	"CULTURE": 147,
	"over_all_rank": 328,
	"SAFETY": 360,
	"INCOME": 240,
	"EDUCATION": 275,
	"place_name": "North Lanarkshire"
},
{
	"LIFE_EXPECTANCY": 259,
	"WELLBEING": 205,
	"HOUSING_AFFORDABILITY": 21,
	"ENVIRONMENT": 358,
	"CULTURE": 220,
	"over_all_rank": 263,
	"SAFETY": 225,
	"INCOME": 211,
	"EDUCATION": 306,
	"place_name": "North Lincolnshire"
},
{
	"LIFE_EXPECTANCY": 311,
	"WELLBEING": 157,
	"HOUSING_AFFORDABILITY": 67,
	"ENVIRONMENT": 144,
	"CULTURE": 370,
	"over_all_rank": 193,
	"SAFETY": 142,
	"INCOME": 115,
	"EDUCATION": 231,
	"place_name": "Bridgend"
},
{
	"LIFE_EXPECTANCY": 247,
	"WELLBEING": 92,
	"HOUSING_AFFORDABILITY": 162,
	"ENVIRONMENT": 7,
	"CULTURE": 147,
	"over_all_rank": 54,
	"SAFETY": 308,
	"INCOME": 139,
	"EDUCATION": 53,
	"place_name": "Perth and Kinross"
},
{
	"LIFE_EXPECTANCY": 140,
	"WELLBEING": 176,
	"HOUSING_AFFORDABILITY": 283,
	"ENVIRONMENT": 140,
	"CULTURE": 249,
	"over_all_rank": 132,
	"SAFETY": 113,
	"INCOME": 275,
	"EDUCATION": 188,
	"place_name": "Poole"
},
{
	"LIFE_EXPECTANCY": 159,
	"WELLBEING": 66,
	"HOUSING_AFFORDABILITY": 149,
	"ENVIRONMENT": 18,
	"CULTURE": 370,
	"over_all_rank": 92,
	"SAFETY": 35,
	"INCOME": 250,
	"EDUCATION": 156,
	"place_name": "Powys"
},
{
	"LIFE_EXPECTANCY": 195,
	"WELLBEING": 211,
	"HOUSING_AFFORDABILITY": 269,
	"ENVIRONMENT": 214,
	"CULTURE": 34,
	"over_all_rank": 118,
	"SAFETY": 310,
	"INCOME": 22,
	"EDUCATION": 43,
	"place_name": "Reading"
},
{
	"LIFE_EXPECTANCY": 311,
	"WELLBEING": 224,
	"HOUSING_AFFORDABILITY": 60,
	"ENVIRONMENT": 237,
	"CULTURE": 353,
	"over_all_rank": 289,
	"SAFETY": 274,
	"INCOME": 268,
	"EDUCATION": 288,
	"place_name": "Redcar and Cleveland"
},
{
	"LIFE_EXPECTANCY": 364,
	"WELLBEING": 185,
	"HOUSING_AFFORDABILITY": 38,
	"ENVIRONMENT": 11,
	"CULTURE": 147,
	"over_all_rank": 245,
	"SAFETY": 363,
	"INCOME": 141,
	"EDUCATION": 123,
	"place_name": "Renfrewshire"
},
{
	"LIFE_EXPECTANCY": 364,
	"WELLBEING": 336,
	"HOUSING_AFFORDABILITY": 12,
	"ENVIRONMENT": 126,
	"CULTURE": 370,
	"over_all_rank": 313,
	"SAFETY": 198,
	"INCOME": 98,
	"EDUCATION": 265,
	"place_name": "Rhondda Cynon Taf"
},
{
	"LIFE_EXPECTANCY": 17,
	"WELLBEING": 83,
	"HOUSING_AFFORDABILITY": 246,
	"ENVIRONMENT": 266,
	"CULTURE": 327,
	"over_all_rank": 144,
	"SAFETY": 2,
	"INCOME": 341,
	"EDUCATION": 61,
	"place_name": "Rutland"
},
{
	"LIFE_EXPECTANCY": 259,
	"WELLBEING": 43,
	"HOUSING_AFFORDABILITY": 156,
	"ENVIRONMENT": 9,
	"CULTURE": 147,
	"over_all_rank": 24,
	"SAFETY": 135,
	"INCOME": 169,
	"EDUCATION": 165,
	"place_name": "Scottish Borders"
},
{
	"LIFE_EXPECTANCY": 130,
	"WELLBEING": 108,
	"HOUSING_AFFORDABILITY": 171,
	"ENVIRONMENT": 54,
	"CULTURE": 116,
	"over_all_rank": 10,
	"SAFETY": 67,
	"INCOME": 145,
	"EDUCATION": 237,
	"place_name": "Shropshire"
},
{
	"LIFE_EXPECTANCY": 311,
	"WELLBEING": 140,
	"HOUSING_AFFORDABILITY": 92,
	"ENVIRONMENT": 41,
	"CULTURE": 370,
	"over_all_rank": 197,
	"SAFETY": 220,
	"INCOME": 118,
	"EDUCATION": 229,
	"place_name": "Denbighshire"
},
{
	"LIFE_EXPECTANCY": 276,
	"WELLBEING": 281,
	"HOUSING_AFFORDABILITY": 72,
	"ENVIRONMENT": 42,
	"CULTURE": 370,
	"over_all_rank": 181,
	"SAFETY": 46,
	"INCOME": 148,
	"EDUCATION": 230,
	"place_name": "Carmarthenshire"
},
{
	"LIFE_EXPECTANCY": 268,
	"WELLBEING": 164,
	"HOUSING_AFFORDABILITY": 71,
	"ENVIRONMENT": 117,
	"CULTURE": 370,
	"over_all_rank": 182,
	"SAFETY": 86,
	"INCOME": 48,
	"EDUCATION": 316,
	"place_name": "Flintshire"
},
{
	"LIFE_EXPECTANCY": 229,
	"WELLBEING": 356,
	"HOUSING_AFFORDABILITY": 303,
	"ENVIRONMENT": 339,
	"CULTURE": 34,
	"over_all_rank": 305,
	"SAFETY": 296,
	"INCOME": 37,
	"EDUCATION": 173,
	"place_name": "Slough"
},
{
	"LIFE_EXPECTANCY": 212,
	"WELLBEING": 187,
	"HOUSING_AFFORDABILITY": 211,
	"ENVIRONMENT": 319,
	"CULTURE": 186,
	"over_all_rank": 216,
	"SAFETY": 171,
	"INCOME": 99,
	"EDUCATION": 318,
	"place_name": "Southend-on-Sea"
},
{
	"LIFE_EXPECTANCY": 50,
	"WELLBEING": 122,
	"HOUSING_AFFORDABILITY": 219,
	"ENVIRONMENT": 206,
	"CULTURE": 249,
	"over_all_rank": 53,
	"SAFETY": 129,
	"INCOME": 197,
	"EDUCATION": 157,
	"place_name": "South Gloucestershire"
},
{
	"LIFE_EXPECTANCY": 356,
	"WELLBEING": 154,
	"HOUSING_AFFORDABILITY": 36,
	"ENVIRONMENT": 21,
	"CULTURE": 147,
	"over_all_rank": 167,
	"SAFETY": 333,
	"INCOME": 89,
	"EDUCATION": 142,
	"place_name": "South Lanarkshire"
},
{
	"LIFE_EXPECTANCY": 298,
	"WELLBEING": 228,
	"HOUSING_AFFORDABILITY": 140,
	"ENVIRONMENT": 6,
	"CULTURE": 147,
	"over_all_rank": 218,
	"SAFETY": 368,
	"INCOME": 192,
	"EDUCATION": 62,
	"place_name": "Stirling"
},
{
	"LIFE_EXPECTANCY": 316,
	"WELLBEING": 178,
	"HOUSING_AFFORDABILITY": 33,
	"ENVIRONMENT": 233,
	"CULTURE": 353,
	"over_all_rank": 229,
	"SAFETY": 249,
	"INCOME": 218,
	"EDUCATION": 196,
	"place_name": "Stockton-on-Tees"
},
{
	"LIFE_EXPECTANCY": 229,
	"WELLBEING": 214,
	"HOUSING_AFFORDABILITY": 155,
	"ENVIRONMENT": 192,
	"CULTURE": 249,
	"over_all_rank": 208,
	"SAFETY": 306,
	"INCOME": 244,
	"EDUCATION": 217,
	"place_name": "Swindon"
},
{
	"LIFE_EXPECTANCY": 298,
	"WELLBEING": 233,
	"HOUSING_AFFORDABILITY": 118,
	"ENVIRONMENT": 113,
	"CULTURE": 116,
	"over_all_rank": 278,
	"SAFETY": 285,
	"INCOME": 360,
	"EDUCATION": 253,
	"place_name": "Telford and Wrekin"
},
{
	"LIFE_EXPECTANCY": 159,
	"WELLBEING": 366,
	"HOUSING_AFFORDABILITY": 323,
	"ENVIRONMENT": 232,
	"CULTURE": 34,
	"over_all_rank": 259,
	"SAFETY": 311,
	"INCOME": 28,
	"EDUCATION": 29,
	"place_name": "Brighton and Hove"
},
{
	"LIFE_EXPECTANCY": 247,
	"WELLBEING": 209,
	"HOUSING_AFFORDABILITY": 243,
	"ENVIRONMENT": 352,
	"CULTURE": 186,
	"over_all_rank": 320,
	"SAFETY": 256,
	"INCOME": 116,
	"EDUCATION": 362,
	"place_name": "Thurrock"
},
{
	"LIFE_EXPECTANCY": 298,
	"WELLBEING": 326,
	"HOUSING_AFFORDABILITY": 37,
	"ENVIRONMENT": 137,
	"CULTURE": 370,
	"over_all_rank": 277,
	"SAFETY": 239,
	"INCOME": 155,
	"EDUCATION": 248,
	"place_name": "Torfaen"
},
{
	"LIFE_EXPECTANCY": 183,
	"WELLBEING": 127,
	"HOUSING_AFFORDABILITY": 216,
	"ENVIRONMENT": 102,
	"CULTURE": 249,
	"over_all_rank": 198,
	"SAFETY": 237,
	"INCOME": 287,
	"EDUCATION": 311,
	"place_name": "Torbay"
},
{
	"LIFE_EXPECTANCY": 311,
	"WELLBEING": 204,
	"HOUSING_AFFORDABILITY": 100,
	"ENVIRONMENT": 311,
	"CULTURE": 287,
	"over_all_rank": 191,
	"SAFETY": 179,
	"INCOME": 83,
	"EDUCATION": 186,
	"place_name": "Warrington"
},
{
	"LIFE_EXPECTANCY": 93,
	"WELLBEING": 104,
	"HOUSING_AFFORDABILITY": 294,
	"ENVIRONMENT": 45,
	"CULTURE": 34,
	"over_all_rank": 4,
	"SAFETY": 88,
	"INCOME": 86,
	"EDUCATION": 38,
	"place_name": "West Berkshire"
},
{
	"LIFE_EXPECTANCY": 356,
	"WELLBEING": 175,
	"HOUSING_AFFORDABILITY": 124,
	"ENVIRONMENT": 37,
	"CULTURE": 147,
	"over_all_rank": 168,
	"SAFETY": 298,
	"INCOME": 75,
	"EDUCATION": 179,
	"place_name": "West Lothian"
},
{
	"LIFE_EXPECTANCY": 380,
	"WELLBEING": 325,
	"HOUSING_AFFORDABILITY": 7,
	"ENVIRONMENT": 22,
	"CULTURE": 147,
	"over_all_rank": 356,
	"SAFETY": 374,
	"INCOME": 292,
	"EDUCATION": 181,
	"place_name": "West Dunbartonshire"
},
{
	"LIFE_EXPECTANCY": 114,
	"WELLBEING": 79,
	"HOUSING_AFFORDABILITY": 270,
	"ENVIRONMENT": 116,
	"CULTURE": 249,
	"over_all_rank": 17,
	"SAFETY": 45,
	"INCOME": 128,
	"EDUCATION": 94,
	"place_name": "Wiltshire"
},
{
	"LIFE_EXPECTANCY": 40,
	"WELLBEING": 119,
	"HOUSING_AFFORDABILITY": 348,
	"ENVIRONMENT": 145,
	"CULTURE": 34,
	"over_all_rank": 94,
	"SAFETY": 116,
	"INCOME": 273,
	"EDUCATION": 17,
	"place_name": "Windsor and Maidenhead"
},
{
	"LIFE_EXPECTANCY": 40,
	"WELLBEING": 162,
	"HOUSING_AFFORDABILITY": 314,
	"ENVIRONMENT": 110,
	"CULTURE": 34,
	"over_all_rank": 41,
	"SAFETY": 14,
	"INCOME": 272,
	"EDUCATION": 33,
	"place_name": "Wokingham"
},
{
	"LIFE_EXPECTANCY": 322,
	"WELLBEING": 165,
	"HOUSING_AFFORDABILITY": 83,
	"ENVIRONMENT": 85,
	"CULTURE": 370,
	"over_all_rank": 233,
	"SAFETY": 255,
	"INCOME": 100,
	"EDUCATION": 258,
	"place_name": "Wrexham"
},
{
	"LIFE_EXPECTANCY": 172,
	"WELLBEING": 230,
	"HOUSING_AFFORDABILITY": 231,
	"ENVIRONMENT": 166,
	"CULTURE": 220,
	"over_all_rank": 79,
	"SAFETY": 114,
	"INCOME": 200,
	"EDUCATION": 83,
	"place_name": "York"
},
{
	"LIFE_EXPECTANCY": 84,
	"WELLBEING": 81,
	"HOUSING_AFFORDABILITY": 222,
	"ENVIRONMENT": 276,
	"CULTURE": 186,
	"over_all_rank": 125,
	"SAFETY": 5,
	"INCOME": 221,
	"EDUCATION": 315,
	"place_name": "Broadland"
},
{
	"LIFE_EXPECTANCY": 66,
	"WELLBEING": 299,
	"HOUSING_AFFORDABILITY": 285,
	"ENVIRONMENT": 134,
	"CULTURE": 186,
	"over_all_rank": 247,
	"SAFETY": 12,
	"INCOME": 312,
	"EDUCATION": 343,
	"place_name": "North Norfolk"
},
{
	"LIFE_EXPECTANCY": 159,
	"WELLBEING": 49,
	"HOUSING_AFFORDABILITY": 242,
	"ENVIRONMENT": 43,
	"CULTURE": 249,
	"over_all_rank": 157,
	"SAFETY": 158,
	"INCOME": 313,
	"EDUCATION": 301,
	"place_name": "Torridge"
},
{
	"LIFE_EXPECTANCY": 17,
	"WELLBEING": 8,
	"HOUSING_AFFORDABILITY": 316,
	"ENVIRONMENT": 51,
	"CULTURE": 249,
	"over_all_rank": 15,
	"SAFETY": 158,
	"INCOME": 74,
	"EDUCATION": 78,
	"place_name": "South Hams"
},
{
	"LIFE_EXPECTANCY": 130,
	"WELLBEING": 109,
	"HOUSING_AFFORDABILITY": 193,
	"ENVIRONMENT": 124,
	"CULTURE": 34,
	"over_all_rank": 200,
	"SAFETY": 218,
	"INCOME": 358,
	"EDUCATION": 280,
	"place_name": "Isle of Wight"
},
{
	"LIFE_EXPECTANCY": 247,
	"WELLBEING": 53,
	"HOUSING_AFFORDABILITY": 163,
	"ENVIRONMENT": 146,
	"CULTURE": 370,
	"over_all_rank": 187,
	"SAFETY": 186,
	"INCOME": 225,
	"EDUCATION": 202,
	"place_name": "Isle of Anglesey"
},
{
	"LIFE_EXPECTANCY": 140,
	"WELLBEING": 167,
	"HOUSING_AFFORDABILITY": 151,
	"ENVIRONMENT": 15,
	"CULTURE": 370,
	"over_all_rank": 155,
	"SAFETY": 97,
	"INCOME": 270,
	"EDUCATION": 226,
	"place_name": "Gwynedd"
},
{
	"LIFE_EXPECTANCY": 103,
	"WELLBEING": 193,
	"HOUSING_AFFORDABILITY": 144,
	"ENVIRONMENT": 35,
	"CULTURE": 370,
	"over_all_rank": 60,
	"SAFETY": 31,
	"INCOME": 125,
	"EDUCATION": 101,
	"place_name": "Monmouthshire"
},
{
	"LIFE_EXPECTANCY": 247,
	"WELLBEING": 251,
	"HOUSING_AFFORDABILITY": 154,
	"ENVIRONMENT": 342,
	"CULTURE": 370,
	"over_all_rank": 314,
	"SAFETY": 330,
	"INCOME": 185,
	"EDUCATION": 69,
	"place_name": "Cardiff"
},
{
	"LIFE_EXPECTANCY": 140,
	"WELLBEING": 247,
	"HOUSING_AFFORDABILITY": 196,
	"ENVIRONMENT": 34,
	"CULTURE": 370,
	"over_all_rank": 108,
	"SAFETY": 42,
	"INCOME": 129,
	"EDUCATION": 131,
	"place_name": "Ceredigion"
},
{
	"LIFE_EXPECTANCY": 195,
	"WELLBEING": 138,
	"HOUSING_AFFORDABILITY": 167,
	"ENVIRONMENT": 193,
	"CULTURE": 370,
	"over_all_rank": 214,
	"SAFETY": 40,
	"INCOME": 274,
	"EDUCATION": 264,
	"place_name": "Pembrokeshire"
},
{
	"LIFE_EXPECTANCY": 159,
	"WELLBEING": 195,
	"HOUSING_AFFORDABILITY": 194,
	"ENVIRONMENT": 153,
	"CULTURE": 249,
	"over_all_rank": 128,
	"SAFETY": 242,
	"INCOME": 271,
	"EDUCATION": 118,
	"place_name": "North Somerset"
},
{
	"LIFE_EXPECTANCY": 247,
	"WELLBEING": 23,
	"HOUSING_AFFORDABILITY": 171,
	"ENVIRONMENT": 3,
	"CULTURE": 147,
	"over_all_rank": 116,
	"SAFETY": 358,
	"INCOME": 113,
	"EDUCATION": 128,
	"place_name": "Highland"
},
{
	"LIFE_EXPECTANCY": 316,
	"WELLBEING": 314,
	"HOUSING_AFFORDABILITY": 129,
	"ENVIRONMENT": 1,
	"CULTURE": 147,
	"over_all_rank": 226,
	"SAFETY": 289,
	"INCOME": 241,
	"EDUCATION": 215,
	"place_name": "Moray"
},
{
	"LIFE_EXPECTANCY": 229,
	"WELLBEING": 4,
	"HOUSING_AFFORDABILITY": 92,
	"ENVIRONMENT": 219,
	"CULTURE": 147,
	"over_all_rank": 13,
	"SAFETY": 48,
	"INCOME": 104,
	"EDUCATION": 170,
	"place_name": "Orkney Islands"
},
{
	"LIFE_EXPECTANCY": 220,
	"WELLBEING": 1,
	"HOUSING_AFFORDABILITY": 51,
	"ENVIRONMENT": 200,
	"CULTURE": 147,
	"over_all_rank": 57,
	"SAFETY": 131,
	"INCOME": 319,
	"EDUCATION": 76,
	"place_name": "Eilean Siar"
},
{
	"LIFE_EXPECTANCY": 285,
	"WELLBEING": 48,
	"HOUSING_AFFORDABILITY": 101,
	"ENVIRONMENT": 2,
	"CULTURE": 147,
	"over_all_rank": 131,
	"SAFETY": 329,
	"INCOME": 267,
	"EDUCATION": 129,
	"place_name": "Argyll and Bute"
},
{
	"LIFE_EXPECTANCY": 285,
	"WELLBEING": 57,
	"HOUSING_AFFORDABILITY": 232,
	"ENVIRONMENT": 12,
	"CULTURE": 147,
	"over_all_rank": 33,
	"SAFETY": 139,
	"INCOME": 106,
	"EDUCATION": 106,
	"place_name": "Aberdeenshire"
},
{
	"LIFE_EXPECTANCY": 328,
	"WELLBEING": 223,
	"HOUSING_AFFORDABILITY": 83,
	"ENVIRONMENT": 25,
	"CULTURE": 147,
	"over_all_rank": 129,
	"SAFETY": 317,
	"INCOME": 84,
	"EDUCATION": 80,
	"place_name": "Fife"
},
{
	"LIFE_EXPECTANCY": 285,
	"WELLBEING": 294,
	"HOUSING_AFFORDABILITY": 200,
	"ENVIRONMENT": 48,
	"CULTURE": 147,
	"over_all_rank": 186,
	"SAFETY": 354,
	"INCOME": 25,
	"EDUCATION": 13,
	"place_name": "Edinburgh"
},
{
	"LIFE_EXPECTANCY": 351,
	"WELLBEING": 215,
	"HOUSING_AFFORDABILITY": 183,
	"ENVIRONMENT": 170,
	"CULTURE": 147,
	"over_all_rank": 287,
	"SAFETY": 376,
	"INCOME": 49,
	"EDUCATION": 27,
	"place_name": "Aberdeen City"
},
{
	"LIFE_EXPECTANCY": 259,
	"WELLBEING": 241,
	"HOUSING_AFFORDABILITY": 173,
	"ENVIRONMENT": 38,
	"CULTURE": 147,
	"over_all_rank": 28,
	"SAFETY": 134,
	"INCOME": 6,
	"EDUCATION": 88,
	"place_name": "East Lothian"
},
{
	"LIFE_EXPECTANCY": 304,
	"WELLBEING": 34,
	"HOUSING_AFFORDABILITY": 151,
	"ENVIRONMENT": 248,
	"CULTURE": 147,
	"over_all_rank": 93,
	"SAFETY": 259,
	"INCOME": 66,
	"EDUCATION": 85,
	"place_name": "Shetland Islands"
},
{
	"LIFE_EXPECTANCY": 356,
	"WELLBEING": 286,
	"HOUSING_AFFORDABILITY": 11,
	"ENVIRONMENT": 4,
	"CULTURE": 147,
	"over_all_rank": 269,
	"SAFETY": 348,
	"INCOME": 191,
	"EDUCATION": 254,
	"place_name": "North Ayrshire"
},
{
	"LIFE_EXPECTANCY": 338,
	"WELLBEING": 76,
	"HOUSING_AFFORDABILITY": 131,
	"ENVIRONMENT": 10,
	"CULTURE": 147,
	"over_all_rank": 273,
	"SAFETY": 377,
	"INCOME": 79,
	"EDUCATION": 276,
	"place_name": "Dumfries and Galloway"
},
{
	"LIFE_EXPECTANCY": 285,
	"WELLBEING": 82,
	"HOUSING_AFFORDABILITY": 178,
	"ENVIRONMENT": 366,
	"CULTURE": 34,
	"over_all_rank": 302,
	"SAFETY": 361,
	"INCOME": 96,
	"EDUCATION": 200,
	"place_name": "Portsmouth"
},
{
	"LIFE_EXPECTANCY": 229,
	"WELLBEING": 171,
	"HOUSING_AFFORDABILITY": 147,
	"ENVIRONMENT": 224,
	"CULTURE": 249,
	"over_all_rank": 117,
	"SAFETY": 231,
	"INCOME": 94,
	"EDUCATION": 209,
	"place_name": "Plymouth"
},
{
	"LIFE_EXPECTANCY": 349,
	"WELLBEING": 173,
	"HOUSING_AFFORDABILITY": 106,
	"ENVIRONMENT": 13,
	"CULTURE": 147,
	"over_all_rank": 172,
	"SAFETY": 342,
	"INCOME": 10,
	"EDUCATION": 155,
	"place_name": "South Ayrshire"
},
{
	"LIFE_EXPECTANCY": 247,
	"WELLBEING": 143,
	"HOUSING_AFFORDABILITY": 98,
	"ENVIRONMENT": 28,
	"CULTURE": 353,
	"over_all_rank": 139,
	"SAFETY": 130,
	"INCOME": 245,
	"EDUCATION": 255,
	"place_name": "Northumberland"
},
{
	"LIFE_EXPECTANCY": 172,
	"WELLBEING": 96,
	"HOUSING_AFFORDABILITY": 240,
	"ENVIRONMENT": 65,
	"CULTURE": 249,
	"over_all_rank": 73,
	"SAFETY": 30,
	"INCOME": 260,
	"EDUCATION": 224,
	"place_name": "Cornwall"
},
{
	"LIFE_EXPECTANCY": 108,
	"WELLBEING": 110,
	"HOUSING_AFFORDABILITY": 258,
	"ENVIRONMENT": 19,
	"CULTURE": 249,
	"over_all_rank": 38,
	"SAFETY": 58,
	"INCOME": 235,
	"EDUCATION": 164,
	"place_name": "Isles of Scilly"
}]